<gpx creator="Mission Planner" xmlns="http://www.topografix.com/GPX/1/1"><trk><trkseg><trkpt lat="39.9197446" lon="-105.112762"><ele>1681.55</ele><time>2018-06-05T16:58:30-06:00</time><course>287.18</course><roll>-1.31</roll><pitch>6.07</pitch><mode /></trkpt><trkpt lat="39.9197445" lon="-105.1127631"><ele>1681.3</ele><time>2018-06-05T16:58:30-06:00</time><course>287.24</course><roll>-1.11</roll><pitch>6.03</pitch><mode /></trkpt><trkpt lat="39.9197442" lon="-105.112763"><ele>1681.23</ele><time>2018-06-05T16:58:30-06:00</time><course>287.22</course><roll>-0.6</roll><pitch>5.45</pitch><mode /></trkpt><trkpt lat="39.9197421" lon="-105.1127639"><ele>1681.26</ele><time>2018-06-05T16:58:30-06:00</time><course>287.48</course><roll>1.08</roll><pitch>3.17</pitch><mode /></trkpt><trkpt lat="39.9197415" lon="-105.1127644"><ele>1681.26</ele><time>2018-06-05T16:58:31-06:00</time><course>288.92</course><roll>8.72</roll><pitch>-3.92</pitch><mode /></trkpt><trkpt lat="39.9197402" lon="-105.112766"><ele>1681.33</ele><time>2018-06-05T16:58:31-06:00</time><course>277.89</course><roll>15.37</roll><pitch>-13.24</pitch><mode /></trkpt><trkpt lat="39.9197394" lon="-105.1127675"><ele>1681.37</ele><time>2018-06-05T16:58:31-06:00</time><course>269.22</course><roll>-4.09</roll><pitch>-3.03</pitch><mode /></trkpt><trkpt lat="39.9197395" lon="-105.1127685"><ele>1681.36</ele><time>2018-06-05T16:58:31-06:00</time><course>267.44</course><roll>-4.97</roll><pitch>2.89</pitch><mode /></trkpt><trkpt lat="39.9197365" lon="-105.1127733"><ele>1681.52</ele><time>2018-06-05T16:58:31-06:00</time><course>267.38</course><roll>-5.18</roll><pitch>3.1</pitch><mode /></trkpt><trkpt lat="39.9197323" lon="-105.1127769"><ele>1681.63</ele><time>2018-06-05T16:58:32-06:00</time><course>265.03</course><roll>-1.93</roll><pitch>-3.52</pitch><mode /></trkpt><trkpt lat="39.919728" lon="-105.1127801"><ele>1681.73</ele><time>2018-06-05T16:58:32-06:00</time><course>263.52</course><roll>19.02</roll><pitch>-18.25</pitch><mode /></trkpt><trkpt lat="39.9197259" lon="-105.1127809"><ele>1681.82</ele><time>2018-06-05T16:58:32-06:00</time><course>244.95</course><roll>58.24</roll><pitch>-40.13</pitch><mode /></trkpt><trkpt lat="39.9197237" lon="-105.1127806"><ele>1681.81</ele><time>2018-06-05T16:58:32-06:00</time><course>197.82</course><roll>146.55</roll><pitch>-30.88</pitch><mode /></trkpt><trkpt lat="39.9197193" lon="-105.1127835"><ele>1682.05</ele><time>2018-06-05T16:58:32-06:00</time><course>179.5</course><roll>176.84</roll><pitch>-12.68</pitch><mode /></trkpt><trkpt lat="39.9197173" lon="-105.1127848"><ele>1682.27</ele><time>2018-06-05T16:58:33-06:00</time><course>175.93</course><roll>162.45</roll><pitch>-10.76</pitch><mode /></trkpt><trkpt lat="39.9197153" lon="-105.1127859"><ele>1682.32</ele><time>2018-06-05T16:58:33-06:00</time><course>179.12</course><roll>164.58</roll><pitch>-20.51</pitch><mode /></trkpt><trkpt lat="39.9197148" lon="-105.1127864"><ele>1682.42</ele><time>2018-06-05T16:58:33-06:00</time><course>173.05</course><roll>173.79</roll><pitch>-23.69</pitch><mode /></trkpt><trkpt lat="39.9197139" lon="-105.1127872"><ele>1682.56</ele><time>2018-06-05T16:58:33-06:00</time><course>173.35</course><roll>173.9</roll><pitch>-23.67</pitch><mode /></trkpt><trkpt lat="39.9197129" lon="-105.1127883"><ele>1682.68</ele><time>2018-06-05T16:58:33-06:00</time><course>174.08</course><roll>173.63</roll><pitch>-23.69</pitch><mode /></trkpt><trkpt lat="39.9197117" lon="-105.11279"><ele>1682.86</ele><time>2018-06-05T16:58:34-06:00</time><course>174.92</course><roll>173.26</roll><pitch>-23.62</pitch><mode /></trkpt><trkpt lat="39.9197103" lon="-105.1127924"><ele>1683.04</ele><time>2018-06-05T16:58:34-06:00</time><course>175.76</course><roll>172.9</roll><pitch>-23.56</pitch><mode /></trkpt><trkpt lat="39.9197081" lon="-105.1127944"><ele>1683.19</ele><time>2018-06-05T16:58:34-06:00</time><course>176.59</course><roll>172.56</roll><pitch>-23.49</pitch><mode /></trkpt><trkpt lat="39.9197072" lon="-105.1127973"><ele>1683.38</ele><time>2018-06-05T16:58:34-06:00</time><course>177.44</course><roll>172.21</roll><pitch>-23.41</pitch><mode /></trkpt><trkpt lat="39.9197059" lon="-105.1128008"><ele>1683.64</ele><time>2018-06-05T16:58:34-06:00</time><course>178.27</course><roll>171.88</roll><pitch>-23.33</pitch><mode /></trkpt><trkpt lat="39.9197048" lon="-105.1128037"><ele>1683.97</ele><time>2018-06-05T16:58:35-06:00</time><course>179.07</course><roll>171.56</roll><pitch>-23.25</pitch><mode /></trkpt><trkpt lat="39.9197036" lon="-105.1128067"><ele>1684.28</ele><time>2018-06-05T16:58:35-06:00</time><course>179.86</course><roll>171.26</roll><pitch>-23.17</pitch><mode /></trkpt><trkpt lat="39.9197073" lon="-105.1128093"><ele>1684.81</ele><time>2018-06-05T16:58:35-06:00</time><course>180.64</course><roll>170.97</roll><pitch>-23.09</pitch><mode /></trkpt><trkpt lat="39.9197114" lon="-105.1128128"><ele>1685.47</ele><time>2018-06-05T16:58:35-06:00</time><course>181.38</course><roll>170.7</roll><pitch>-23.02</pitch><mode /></trkpt><trkpt lat="39.9197127" lon="-105.1128165"><ele>1685.93</ele><time>2018-06-05T16:58:35-06:00</time><course>182.12</course><roll>170.44</roll><pitch>-22.94</pitch><mode /></trkpt><trkpt lat="39.9197132" lon="-105.1128204"><ele>1686.38</ele><time>2018-06-05T16:58:36-06:00</time><course>182.83</course><roll>170.19</roll><pitch>-22.86</pitch><mode /></trkpt><trkpt lat="39.9197129" lon="-105.1128242"><ele>1686.78</ele><time>2018-06-05T16:58:36-06:00</time><course>183.53</course><roll>169.95</roll><pitch>-22.78</pitch><mode /></trkpt><trkpt lat="39.9197118" lon="-105.1128278"><ele>1687.13</ele><time>2018-06-05T16:58:36-06:00</time><course>184.21</course><roll>169.72</roll><pitch>-22.71</pitch><mode /></trkpt><trkpt lat="39.919712" lon="-105.1128311"><ele>1687.5</ele><time>2018-06-05T16:58:36-06:00</time><course>184.89</course><roll>169.5</roll><pitch>-22.63</pitch><mode /></trkpt><trkpt lat="39.9197106" lon="-105.1128344"><ele>1687.8</ele><time>2018-06-05T16:58:36-06:00</time><course>185.56</course><roll>169.29</roll><pitch>-22.56</pitch><mode /></trkpt><trkpt lat="39.9197104" lon="-105.1128374"><ele>1688.13</ele><time>2018-06-05T16:58:37-06:00</time><course>186.22</course><roll>169.09</roll><pitch>-22.49</pitch><mode /></trkpt><trkpt lat="39.9197092" lon="-105.1128412"><ele>1688.52</ele><time>2018-06-05T16:58:37-06:00</time><course>186.85</course><roll>168.9</roll><pitch>-22.43</pitch><mode /></trkpt><trkpt lat="39.9197091" lon="-105.1128437"><ele>1688.78</ele><time>2018-06-05T16:58:37-06:00</time><course>187.48</course><roll>168.72</roll><pitch>-22.36</pitch><mode /></trkpt><trkpt lat="39.9197081" lon="-105.1128468"><ele>1689.11</ele><time>2018-06-05T16:58:37-06:00</time><course>188.1</course><roll>168.55</roll><pitch>-22.29</pitch><mode /></trkpt><trkpt lat="39.9197066" lon="-105.1128511"><ele>1689.52</ele><time>2018-06-05T16:58:37-06:00</time><course>188.66</course><roll>168.3</roll><pitch>-22.32</pitch><mode /></trkpt><trkpt lat="39.9197057" lon="-105.1128535"><ele>1689.74</ele><time>2018-06-05T16:58:38-06:00</time><course>190.27</course><roll>165.01</roll><pitch>-29.65</pitch><mode /></trkpt><trkpt lat="39.9197049" lon="-105.1128564"><ele>1689.84</ele><time>2018-06-05T16:58:38-06:00</time><course>202.14</course><roll>151.08</roll><pitch>-48.68</pitch><mode /></trkpt><trkpt lat="39.919707" lon="-105.1128538"><ele>1689.58</ele><time>2018-06-05T16:58:38-06:00</time><course>239.25</course><roll>115.78</roll><pitch>-62.89</pitch><mode /></trkpt><trkpt lat="39.9197068" lon="-105.1128533"><ele>1689.55</ele><time>2018-06-05T16:58:38-06:00</time><course>276.38</course><roll>85.18</roll><pitch>-68.37</pitch><mode /></trkpt><trkpt lat="39.9197048" lon="-105.112859"><ele>1689.92</ele><time>2018-06-05T16:58:38-06:00</time><course>283.94</course><roll>89.75</roll><pitch>-76.01</pitch><mode /></trkpt><trkpt lat="39.919705" lon="-105.1128596"><ele>1689.97</ele><time>2018-06-05T16:58:39-06:00</time><course>271.07</course><roll>118.6</roll><pitch>-83.28</pitch><mode /></trkpt><trkpt lat="39.9197042" lon="-105.1128575"><ele>1689.69</ele><time>2018-06-05T16:58:39-06:00</time><course>30.02</course><roll>3.88</roll><pitch>-74.76</pitch><mode /></trkpt><trkpt lat="39.9197051" lon="-105.1128542"><ele>1689.44</ele><time>2018-06-05T16:58:39-06:00</time><course>38.45</course><roll>-6</roll><pitch>-47.25</pitch><mode /></trkpt><trkpt lat="39.9196966" lon="-105.1128544"><ele>1689.83</ele><time>2018-06-05T16:58:39-06:00</time><course>34.22</course><roll>-5.31</roll><pitch>-30.36</pitch><mode /></trkpt><trkpt lat="39.9196931" lon="-105.1128559"><ele>1689.93</ele><time>2018-06-05T16:58:40-06:00</time><course>37.19</course><roll>-14.45</roll><pitch>-26.42</pitch><mode /></trkpt><trkpt lat="39.9196904" lon="-105.1128573"><ele>1689.95</ele><time>2018-06-05T16:58:40-06:00</time><course>38.46</course><roll>-18.52</roll><pitch>-18.95</pitch><mode /></trkpt><trkpt lat="39.9196875" lon="-105.1128581"><ele>1689.77</ele><time>2018-06-05T16:58:40-06:00</time><course>40.92</course><roll>-16.93</roll><pitch>-18.8</pitch><mode /></trkpt><trkpt lat="39.9196855" lon="-105.1128582"><ele>1689.64</ele><time>2018-06-05T16:58:40-06:00</time><course>46.24</course><roll>-10.02</roll><pitch>-18.21</pitch><mode /></trkpt><trkpt lat="39.9196843" lon="-105.1128599"><ele>1689.68</ele><time>2018-06-05T16:58:40-06:00</time><course>50.04</course><roll>-6.93</roll><pitch>-17.65</pitch><mode /></trkpt><trkpt lat="39.9196838" lon="-105.1128606"><ele>1689.83</ele><time>2018-06-05T16:58:41-06:00</time><course>48.86</course><roll>-9.32</roll><pitch>-16.71</pitch><mode /></trkpt><trkpt lat="39.9196817" lon="-105.1128629"><ele>1690.16</ele><time>2018-06-05T16:58:41-06:00</time><course>45.56</course><roll>-9.11</roll><pitch>-12.34</pitch><mode /></trkpt><trkpt lat="39.9196805" lon="-105.1128639"><ele>1690.42</ele><time>2018-06-05T16:58:41-06:00</time><course>40.82</course><roll>-7.47</roll><pitch>-12.72</pitch><mode /></trkpt><trkpt lat="39.9196795" lon="-105.1128647"><ele>1690.59</ele><time>2018-06-05T16:58:41-06:00</time><course>36.63</course><roll>-10.48</roll><pitch>-9.44</pitch><mode /></trkpt><trkpt lat="39.9196779" lon="-105.1128665"><ele>1690.81</ele><time>2018-06-05T16:58:41-06:00</time><course>33.91</course><roll>-12.98</roll><pitch>-4.65</pitch><mode /></trkpt><trkpt lat="39.9196757" lon="-105.1128682"><ele>1690.91</ele><time>2018-06-05T16:58:42-06:00</time><course>31.69</course><roll>-13.23</roll><pitch>-5.3</pitch><mode /></trkpt><trkpt lat="39.9196747" lon="-105.1128697"><ele>1691.04</ele><time>2018-06-05T16:58:42-06:00</time><course>29.95</course><roll>-16.1</roll><pitch>-6.12</pitch><mode /></trkpt><trkpt lat="39.9196739" lon="-105.1128706"><ele>1691.09</ele><time>2018-06-05T16:58:42-06:00</time><course>28.31</course><roll>-15.58</roll><pitch>-8.69</pitch><mode /></trkpt><trkpt lat="39.9196726" lon="-105.1128721"><ele>1691.23</ele><time>2018-06-05T16:58:42-06:00</time><course>25.53</course><roll>-17.5</roll><pitch>-1.77</pitch><mode /></trkpt><trkpt lat="39.9196716" lon="-105.1128726"><ele>1691.35</ele><time>2018-06-05T16:58:43-06:00</time><course>22</course><roll>-14.56</roll><pitch>-1.21</pitch><mode /></trkpt><trkpt lat="39.9196711" lon="-105.1128714"><ele>1691.42</ele><time>2018-06-05T16:58:43-06:00</time><course>20.98</course><roll>-13.57</roll><pitch>-3.49</pitch><mode /></trkpt><trkpt lat="39.9196662" lon="-105.1128756"><ele>1691.55</ele><time>2018-06-05T16:58:43-06:00</time><course>20.73</course><roll>-8.98</roll><pitch>-3.45</pitch><mode /></trkpt><trkpt lat="39.9196618" lon="-105.1128788"><ele>1691.71</ele><time>2018-06-05T16:58:43-06:00</time><course>22.86</course><roll>-6.81</roll><pitch>-2.91</pitch><mode /></trkpt><trkpt lat="39.9196579" lon="-105.1128806"><ele>1691.95</ele><time>2018-06-05T16:58:43-06:00</time><course>23.2</course><roll>-4.74</roll><pitch>-1.44</pitch><mode /></trkpt><trkpt lat="39.9196566" lon="-105.1128783"><ele>1691.75</ele><time>2018-06-05T16:58:44-06:00</time><course>26.54</course><roll>-0.66</roll><pitch>3.88</pitch><mode /></trkpt><trkpt lat="39.919659" lon="-105.1128691"><ele>1690.98</ele><time>2018-06-05T16:58:44-06:00</time><course>32.5</course><roll>0.55</roll><pitch>4.96</pitch><mode /></trkpt><trkpt lat="39.9196567" lon="-105.11287"><ele>1691.17</ele><time>2018-06-05T16:58:44-06:00</time><course>36</course><roll>0.26</roll><pitch>5.34</pitch><mode /></trkpt><trkpt lat="39.9196537" lon="-105.1128714"><ele>1691.38</ele><time>2018-06-05T16:58:44-06:00</time><course>36.9</course><roll>-0.73</roll><pitch>7.46</pitch><mode /></trkpt><trkpt lat="39.9196533" lon="-105.1128694"><ele>1691.31</ele><time>2018-06-05T16:58:44-06:00</time><course>37.51</course><roll>-2.62</roll><pitch>9.73</pitch><mode /></trkpt><trkpt lat="39.9196546" lon="-105.1128636"><ele>1690.91</ele><time>2018-06-05T16:58:45-06:00</time><course>40.38</course><roll>-1.02</roll><pitch>8.18</pitch><mode /></trkpt><trkpt lat="39.9196534" lon="-105.1128634"><ele>1690.75</ele><time>2018-06-05T16:58:45-06:00</time><course>45.64</course><roll>4.43</roll><pitch>6.77</pitch><mode /></trkpt><trkpt lat="39.9196508" lon="-105.1128653"><ele>1690.97</ele><time>2018-06-05T16:58:45-06:00</time><course>50.56</course><roll>6.18</roll><pitch>6.54</pitch><mode /></trkpt><trkpt lat="39.9196494" lon="-105.1128657"><ele>1691.25</ele><time>2018-06-05T16:58:45-06:00</time><course>53.73</course><roll>5.15</roll><pitch>9.76</pitch><mode /></trkpt><trkpt lat="39.9196503" lon="-105.1128621"><ele>1691.11</ele><time>2018-06-05T16:58:45-06:00</time><course>54.63</course><roll>4.6</roll><pitch>10.12</pitch><mode /></trkpt><trkpt lat="39.9196494" lon="-105.1128613"><ele>1691.49</ele><time>2018-06-05T16:58:46-06:00</time><course>51.51</course><roll>8.14</roll><pitch>9.12</pitch><mode /></trkpt><trkpt lat="39.9196514" lon="-105.1128576"><ele>1691.86</ele><time>2018-06-05T16:58:46-06:00</time><course>50.34</course><roll>10.8</roll><pitch>6.92</pitch><mode /></trkpt><trkpt lat="39.919651" lon="-105.1128578"><ele>1692.15</ele><time>2018-06-05T16:58:46-06:00</time><course>53.43</course><roll>10.46</roll><pitch>6.34</pitch><mode /></trkpt><trkpt lat="39.9196514" lon="-105.1128559"><ele>1692.3</ele><time>2018-06-05T16:58:46-06:00</time><course>58.12</course><roll>7.06</roll><pitch>4.61</pitch><mode /></trkpt><trkpt lat="39.9196521" lon="-105.1128526"><ele>1692.25</ele><time>2018-06-05T16:58:46-06:00</time><course>61.09</course><roll>10.07</roll><pitch>4.48</pitch><mode /></trkpt><trkpt lat="39.9196527" lon="-105.1128502"><ele>1692.19</ele><time>2018-06-05T16:58:47-06:00</time><course>55.45</course><roll>17.83</roll><pitch>4.33</pitch><mode /></trkpt><trkpt lat="39.919656" lon="-105.1128443"><ele>1691.97</ele><time>2018-06-05T16:58:47-06:00</time><course>46.95</course><roll>21.53</roll><pitch>4.77</pitch><mode /></trkpt><trkpt lat="39.9196562" lon="-105.1128403"><ele>1691.86</ele><time>2018-06-05T16:58:47-06:00</time><course>35.7</course><roll>21.7</roll><pitch>8.5</pitch><mode /></trkpt><trkpt lat="39.9196529" lon="-105.1128065"><ele>1687.45</ele><time>2018-06-05T16:58:54-06:00</time><course>68.76</course><roll>7.18</roll><pitch>7.37</pitch><mode /></trkpt><trkpt lat="39.9196526" lon="-105.1128063"><ele>1687.31</ele><time>2018-06-05T16:58:54-06:00</time><course>68.77</course><roll>7.18</roll><pitch>7.41</pitch><mode /></trkpt><trkpt lat="39.919652" lon="-105.1128069"><ele>1687.19</ele><time>2018-06-05T16:58:54-06:00</time><course>68.78</course><roll>7.18</roll><pitch>7.44</pitch><mode /></trkpt><trkpt lat="39.9196511" lon="-105.1128081"><ele>1687.09</ele><time>2018-06-05T16:58:54-06:00</time><course>68.79</course><roll>7.18</roll><pitch>7.46</pitch><mode /></trkpt><trkpt lat="39.9196506" lon="-105.112808"><ele>1687.02</ele><time>2018-06-05T16:58:55-06:00</time><course>68.8</course><roll>7.17</roll><pitch>7.49</pitch><mode /></trkpt><trkpt lat="39.91965" lon="-105.1128069"><ele>1686.84</ele><time>2018-06-05T16:58:55-06:00</time><course>68.82</course><roll>7.18</roll><pitch>7.52</pitch><mode /></trkpt><trkpt lat="39.9196498" lon="-105.1128075"><ele>1686.79</ele><time>2018-06-05T16:58:55-06:00</time><course>68.85</course><roll>7.17</roll><pitch>7.55</pitch><mode /></trkpt><trkpt lat="39.9196494" lon="-105.1128087"><ele>1686.83</ele><time>2018-06-05T16:58:55-06:00</time><course>68.87</course><roll>7.17</roll><pitch>7.58</pitch><mode /></trkpt><trkpt lat="39.9196485" lon="-105.1128106"><ele>1686.81</ele><time>2018-06-05T16:58:55-06:00</time><course>68.89</course><roll>7.17</roll><pitch>7.6</pitch><mode /></trkpt><trkpt lat="39.9196484" lon="-105.1128108"><ele>1686.8</ele><time>2018-06-05T16:58:56-06:00</time><course>68.92</course><roll>7.17</roll><pitch>7.63</pitch><mode /></trkpt><trkpt lat="39.9196476" lon="-105.1128109"><ele>1686.71</ele><time>2018-06-05T16:58:56-06:00</time><course>68.93</course><roll>7.17</roll><pitch>7.67</pitch><mode /></trkpt><trkpt lat="39.919647" lon="-105.1128095"><ele>1686.5</ele><time>2018-06-05T16:58:56-06:00</time><course>68.12</course><roll>0.23</roll><pitch>-0.76</pitch><mode /></trkpt><trkpt lat="39.9196473" lon="-105.1128098"><ele>1686.6</ele><time>2018-06-05T16:58:56-06:00</time><course>70.11</course><roll>-20.41</roll><pitch>-15.42</pitch><mode /></trkpt><trkpt lat="39.9196443" lon="-105.1128095"><ele>1686.59</ele><time>2018-06-05T16:58:57-06:00</time><course>80.34</course><roll>23.82</roll><pitch>22.2</pitch><mode /></trkpt><trkpt lat="39.9196422" lon="-105.1128127"><ele>1686.74</ele><time>2018-06-05T16:58:57-06:00</time><course>123.9</course><roll>102.65</roll><pitch>30.71</pitch><mode /></trkpt><trkpt lat="39.9196414" lon="-105.1128161"><ele>1686.77</ele><time>2018-06-05T16:58:57-06:00</time><course>129.2</course><roll>147.75</roll><pitch>19.05</pitch><mode /></trkpt><trkpt lat="39.9196415" lon="-105.1128182"><ele>1686.6</ele><time>2018-06-05T16:58:57-06:00</time><course>121.48</course><roll>-158.68</roll><pitch>-41.45</pitch><mode /></trkpt><trkpt lat="39.919645" lon="-105.1128189"><ele>1686.42</ele><time>2018-06-05T16:58:57-06:00</time><course>61.58</course><roll>-61.89</roll><pitch>-47.9</pitch><mode /></trkpt><trkpt lat="39.919649" lon="-105.1128209"><ele>1686.32</ele><time>2018-06-05T16:58:58-06:00</time><course>54.84</course><roll>4.44</roll><pitch>-29.36</pitch><mode /></trkpt><trkpt lat="39.9196488" lon="-105.1128227"><ele>1686.03</ele><time>2018-06-05T16:58:58-06:00</time><course>51.48</course><roll>4.46</roll><pitch>6.43</pitch><mode /></trkpt><trkpt lat="39.9196457" lon="-105.1128266"><ele>1686.05</ele><time>2018-06-05T16:58:58-06:00</time><course>51.84</course><roll>4.8</roll><pitch>6.71</pitch><mode /></trkpt><trkpt lat="39.9196384" lon="-105.1128344"><ele>1686.24</ele><time>2018-06-05T16:58:58-06:00</time><course>52</course><roll>4.76</roll><pitch>6.69</pitch><mode /></trkpt><trkpt lat="39.9196308" lon="-105.1128429"><ele>1686.41</ele><time>2018-06-05T16:58:58-06:00</time><course>52.14</course><roll>4.75</roll><pitch>6.69</pitch><mode /></trkpt><trkpt lat="39.9196238" lon="-105.1128508"><ele>1686.65</ele><time>2018-06-05T16:58:59-06:00</time><course>52.28</course><roll>4.71</roll><pitch>6.68</pitch><mode /></trkpt><trkpt lat="39.9196173" lon="-105.1128587"><ele>1686.95</ele><time>2018-06-05T16:58:59-06:00</time><course>52.42</course><roll>4.67</roll><pitch>6.68</pitch><mode /></trkpt><trkpt lat="39.9196115" lon="-105.1128667"><ele>1687.27</ele><time>2018-06-05T16:58:59-06:00</time><course>52.56</course><roll>4.64</roll><pitch>6.68</pitch><mode /></trkpt><trkpt lat="39.9196062" lon="-105.1128741"><ele>1687.61</ele><time>2018-06-05T16:58:59-06:00</time><course>52.71</course><roll>4.61</roll><pitch>6.67</pitch><mode /></trkpt><trkpt lat="39.9196014" lon="-105.1128819"><ele>1688.03</ele><time>2018-06-05T16:58:59-06:00</time><course>52.84</course><roll>4.58</roll><pitch>6.67</pitch><mode /></trkpt><trkpt lat="39.9195967" lon="-105.1128889"><ele>1688.32</ele><time>2018-06-05T16:59:00-06:00</time><course>52.98</course><roll>4.54</roll><pitch>6.66</pitch><mode /></trkpt><trkpt lat="39.9195919" lon="-105.1128955"><ele>1688.58</ele><time>2018-06-05T16:59:00-06:00</time><course>53.12</course><roll>4.51</roll><pitch>6.66</pitch><mode /></trkpt><trkpt lat="39.9195874" lon="-105.1129015"><ele>1688.91</ele><time>2018-06-05T16:59:00-06:00</time><course>53.25</course><roll>4.48</roll><pitch>6.66</pitch><mode /></trkpt><trkpt lat="39.9195833" lon="-105.1129075"><ele>1689.28</ele><time>2018-06-05T16:59:00-06:00</time><course>53.38</course><roll>4.45</roll><pitch>6.66</pitch><mode /></trkpt><trkpt lat="39.9195794" lon="-105.1129134"><ele>1689.73</ele><time>2018-06-05T16:59:00-06:00</time><course>53.51</course><roll>4.41</roll><pitch>6.66</pitch><mode /></trkpt><trkpt lat="39.9195753" lon="-105.1129199"><ele>1690.1</ele><time>2018-06-05T16:59:01-06:00</time><course>53.64</course><roll>4.38</roll><pitch>6.66</pitch><mode /></trkpt><trkpt lat="39.9195713" lon="-105.1129264"><ele>1690.51</ele><time>2018-06-05T16:59:01-06:00</time><course>53.78</course><roll>4.35</roll><pitch>6.66</pitch><mode /></trkpt><trkpt lat="39.919567" lon="-105.1129329"><ele>1690.88</ele><time>2018-06-05T16:59:01-06:00</time><course>53.9</course><roll>4.33</roll><pitch>6.66</pitch><mode /></trkpt><trkpt lat="39.9195622" lon="-105.1129396"><ele>1691.22</ele><time>2018-06-05T16:59:01-06:00</time><course>54.03</course><roll>4.3</roll><pitch>6.66</pitch><mode /></trkpt><trkpt lat="39.9195576" lon="-105.1129468"><ele>1691.49</ele><time>2018-06-05T16:59:01-06:00</time><course>54.16</course><roll>4.27</roll><pitch>6.65</pitch><mode /></trkpt><trkpt lat="39.919553" lon="-105.1129539"><ele>1691.83</ele><time>2018-06-05T16:59:02-06:00</time><course>54.28</course><roll>4.24</roll><pitch>6.65</pitch><mode /></trkpt><trkpt lat="39.9195477" lon="-105.1129616"><ele>1692.14</ele><time>2018-06-05T16:59:02-06:00</time><course>54.4</course><roll>4.21</roll><pitch>6.64</pitch><mode /></trkpt><trkpt lat="39.9195422" lon="-105.1129694"><ele>1692.47</ele><time>2018-06-05T16:59:02-06:00</time><course>54.54</course><roll>4.18</roll><pitch>6.64</pitch><mode /></trkpt><trkpt lat="39.919537" lon="-105.1129767"><ele>1692.83</ele><time>2018-06-05T16:59:02-06:00</time><course>54.66</course><roll>4.15</roll><pitch>6.63</pitch><mode /></trkpt><trkpt lat="39.919531" lon="-105.1129845"><ele>1693.16</ele><time>2018-06-05T16:59:02-06:00</time><course>54.79</course><roll>4.12</roll><pitch>6.62</pitch><mode /></trkpt><trkpt lat="39.9195252" lon="-105.1129923"><ele>1693.45</ele><time>2018-06-05T16:59:03-06:00</time><course>54.91</course><roll>4.08</roll><pitch>6.61</pitch><mode /></trkpt><trkpt lat="39.9195194" lon="-105.1129996"><ele>1693.73</ele><time>2018-06-05T16:59:03-06:00</time><course>55.03</course><roll>4.05</roll><pitch>6.6</pitch><mode /></trkpt><trkpt lat="39.9195169" lon="-105.113001"><ele>1693.78</ele><time>2018-06-05T16:59:03-06:00</time><course>55.16</course><roll>4.02</roll><pitch>6.6</pitch><mode /></trkpt><trkpt lat="39.9195158" lon="-105.1130014"><ele>1693.85</ele><time>2018-06-05T16:59:03-06:00</time><course>55.27</course><roll>3.99</roll><pitch>6.59</pitch><mode /></trkpt><trkpt lat="39.9195159" lon="-105.1130004"><ele>1693.85</ele><time>2018-06-05T16:59:03-06:00</time><course>55.39</course><roll>3.96</roll><pitch>6.58</pitch><mode /></trkpt><trkpt lat="39.919516" lon="-105.1129975"><ele>1693.69</ele><time>2018-06-05T16:59:04-06:00</time><course>55.5</course><roll>3.92</roll><pitch>6.58</pitch><mode /></trkpt><trkpt lat="39.9195181" lon="-105.1129919"><ele>1693.47</ele><time>2018-06-05T16:59:04-06:00</time><course>55.62</course><roll>3.89</roll><pitch>6.58</pitch><mode /></trkpt><trkpt lat="39.9195214" lon="-105.1129842"><ele>1693.16</ele><time>2018-06-05T16:59:04-06:00</time><course>55.73</course><roll>3.87</roll><pitch>6.57</pitch><mode /></trkpt><trkpt lat="39.9195254" lon="-105.1129763"><ele>1692.87</ele><time>2018-06-05T16:59:04-06:00</time><course>55.85</course><roll>3.84</roll><pitch>6.56</pitch><mode /></trkpt><trkpt lat="39.9195306" lon="-105.1129681"><ele>1692.67</ele><time>2018-06-05T16:59:04-06:00</time><course>55.97</course><roll>3.81</roll><pitch>6.56</pitch><mode /></trkpt><trkpt lat="39.9195338" lon="-105.1129621"><ele>1692.44</ele><time>2018-06-05T16:59:05-06:00</time><course>56.08</course><roll>3.78</roll><pitch>6.56</pitch><mode /></trkpt><trkpt lat="39.9195384" lon="-105.1129545"><ele>1692.13</ele><time>2018-06-05T16:59:05-06:00</time><course>56.19</course><roll>3.76</roll><pitch>6.56</pitch><mode /></trkpt><trkpt lat="39.9195424" lon="-105.1129483"><ele>1691.88</ele><time>2018-06-05T16:59:05-06:00</time><course>56.3</course><roll>3.73</roll><pitch>6.55</pitch><mode /></trkpt><trkpt lat="39.919546" lon="-105.1129415"><ele>1691.56</ele><time>2018-06-05T16:59:05-06:00</time><course>56.41</course><roll>3.7</roll><pitch>6.55</pitch><mode /></trkpt><trkpt lat="39.9195483" lon="-105.112937"><ele>1691.4</ele><time>2018-06-05T16:59:05-06:00</time><course>56.52</course><roll>3.67</roll><pitch>6.55</pitch><mode /></trkpt><trkpt lat="39.9195505" lon="-105.1129332"><ele>1691.26</ele><time>2018-06-05T16:59:06-06:00</time><course>56.62</course><roll>3.65</roll><pitch>6.54</pitch><mode /></trkpt><trkpt lat="39.9195527" lon="-105.1129292"><ele>1691.12</ele><time>2018-06-05T16:59:06-06:00</time><course>56.73</course><roll>3.63</roll><pitch>6.54</pitch><mode /></trkpt><trkpt lat="39.9195551" lon="-105.1129254"><ele>1690.95</ele><time>2018-06-05T16:59:06-06:00</time><course>56.83</course><roll>3.61</roll><pitch>6.53</pitch><mode /></trkpt><trkpt lat="39.9195585" lon="-105.1129204"><ele>1690.76</ele><time>2018-06-05T16:59:06-06:00</time><course>56.93</course><roll>3.58</roll><pitch>6.53</pitch><mode /></trkpt><trkpt lat="39.9195616" lon="-105.1129158"><ele>1690.62</ele><time>2018-06-05T16:59:06-06:00</time><course>57.03</course><roll>3.56</roll><pitch>6.53</pitch><mode /></trkpt><trkpt lat="39.9195665" lon="-105.1129089"><ele>1690.39</ele><time>2018-06-05T16:59:07-06:00</time><course>57.13</course><roll>3.54</roll><pitch>6.53</pitch><mode /></trkpt><trkpt lat="39.9195697" lon="-105.1129036"><ele>1690.19</ele><time>2018-06-05T16:59:07-06:00</time><course>57.22</course><roll>3.51</roll><pitch>6.53</pitch><mode /></trkpt><trkpt lat="39.9195726" lon="-105.1128986"><ele>1690</ele><time>2018-06-05T16:59:07-06:00</time><course>57.32</course><roll>3.48</roll><pitch>6.52</pitch><mode /></trkpt><trkpt lat="39.9195725" lon="-105.1128966"><ele>1689.91</ele><time>2018-06-05T16:59:07-06:00</time><course>57.43</course><roll>3.45</roll><pitch>6.5</pitch><mode /></trkpt><trkpt lat="39.9195722" lon="-105.1128952"><ele>1689.84</ele><time>2018-06-05T16:59:07-06:00</time><course>57.53</course><roll>3.42</roll><pitch>6.49</pitch><mode /></trkpt><trkpt lat="39.919574" lon="-105.1128902"><ele>1689.6</ele><time>2018-06-05T16:59:08-06:00</time><course>57.64</course><roll>3.39</roll><pitch>6.48</pitch><mode /></trkpt><trkpt lat="39.9195769" lon="-105.1128839"><ele>1689.32</ele><time>2018-06-05T16:59:08-06:00</time><course>57.74</course><roll>3.36</roll><pitch>6.47</pitch><mode /></trkpt><trkpt lat="39.9195808" lon="-105.1128766"><ele>1688.99</ele><time>2018-06-05T16:59:08-06:00</time><course>57.84</course><roll>3.32</roll><pitch>6.46</pitch><mode /></trkpt><trkpt lat="39.9195834" lon="-105.1128718"><ele>1688.76</ele><time>2018-06-05T16:59:08-06:00</time><course>57.94</course><roll>3.3</roll><pitch>6.45</pitch><mode /></trkpt><trkpt lat="39.9195844" lon="-105.1128702"><ele>1688.73</ele><time>2018-06-05T16:59:08-06:00</time><course>58.03</course><roll>3.27</roll><pitch>6.44</pitch><mode /></trkpt><trkpt lat="39.9195853" lon="-105.1128688"><ele>1688.69</ele><time>2018-06-05T16:59:09-06:00</time><course>58.13</course><roll>3.24</roll><pitch>6.44</pitch><mode /></trkpt><trkpt lat="39.9195867" lon="-105.1128672"><ele>1688.71</ele><time>2018-06-05T16:59:09-06:00</time><course>58.23</course><roll>3.21</roll><pitch>6.43</pitch><mode /></trkpt><trkpt lat="39.9195877" lon="-105.112866"><ele>1688.7</ele><time>2018-06-05T16:59:09-06:00</time><course>58.32</course><roll>3.19</roll><pitch>6.42</pitch><mode /></trkpt><trkpt lat="39.9195886" lon="-105.1128651"><ele>1688.68</ele><time>2018-06-05T16:59:09-06:00</time><course>58.41</course><roll>3.16</roll><pitch>6.41</pitch><mode /></trkpt><trkpt lat="39.9195889" lon="-105.1128648"><ele>1688.67</ele><time>2018-06-05T16:59:09-06:00</time><course>58.51</course><roll>3.15</roll><pitch>6.41</pitch><mode /></trkpt><trkpt lat="39.9195888" lon="-105.1128643"><ele>1688.64</ele><time>2018-06-05T16:59:10-06:00</time><course>58.26</course><roll>1.38</roll><pitch>5.75</pitch><mode /></trkpt><trkpt lat="39.9195884" lon="-105.1128645"><ele>1688.65</ele><time>2018-06-05T16:59:10-06:00</time><course>56.85</course><roll>-5.74</roll><pitch>-6.78</pitch><mode /></trkpt><trkpt lat="39.9195878" lon="-105.112866"><ele>1688.7</ele><time>2018-06-05T16:59:10-06:00</time><course>53.53</course><roll>-6.95</roll><pitch>-11.87</pitch><mode /></trkpt><trkpt lat="39.9195883" lon="-105.1128659"><ele>1688.77</ele><time>2018-06-05T16:59:10-06:00</time><course>47.77</course><roll>-9.48</roll><pitch>-3.05</pitch><mode /></trkpt><trkpt lat="39.9195882" lon="-105.1128699"><ele>1689.05</ele><time>2018-06-05T16:59:10-06:00</time><course>40.01</course><roll>-2.27</roll><pitch>1.77</pitch><mode /></trkpt><trkpt lat="39.9195874" lon="-105.1128741"><ele>1689.2</ele><time>2018-06-05T16:59:11-06:00</time><course>34.24</course><roll>12.11</roll><pitch>-2.46</pitch><mode /></trkpt><trkpt lat="39.9195869" lon="-105.112873"><ele>1689.26</ele><time>2018-06-05T16:59:11-06:00</time><course>39.89</course><roll>20.23</roll><pitch>8.38</pitch><mode /></trkpt><trkpt lat="39.9195872" lon="-105.1128649"><ele>1689.21</ele><time>2018-06-05T16:59:11-06:00</time><course>48.22</course><roll>14.86</roll><pitch>20.62</pitch><mode /></trkpt><trkpt lat="39.9195847" lon="-105.1128658"><ele>1689.28</ele><time>2018-06-05T16:59:12-06:00</time><course>54.22</course><roll>13.8</roll><pitch>19.08</pitch><mode /></trkpt><trkpt lat="39.9195843" lon="-105.1128605"><ele>1689.09</ele><time>2018-06-05T16:59:12-06:00</time><course>71.76</course><roll>12.98</roll><pitch>8.74</pitch><mode /></trkpt><trkpt lat="39.9195832" lon="-105.1128599"><ele>1689.09</ele><time>2018-06-05T16:59:12-06:00</time><course>292.63</course><roll>-7.34</roll><pitch>6.26</pitch><mode /></trkpt><trkpt lat="39.9195987" lon="-105.1128783"><ele>1690.49</ele><time>2018-06-05T16:59:22-06:00</time><course>292.57</course><roll>-7.3</roll><pitch>6.29</pitch><mode /></trkpt><trkpt lat="39.9196009" lon="-105.1128746"><ele>1690.2</ele><time>2018-06-05T16:59:22-06:00</time><course>292.55</course><roll>-7.29</roll><pitch>6.31</pitch><mode /></trkpt><trkpt lat="39.9196019" lon="-105.1128738"><ele>1690.09</ele><time>2018-06-05T16:59:22-06:00</time><course>292.53</course><roll>-7.3</roll><pitch>6.33</pitch><mode /></trkpt><trkpt lat="39.9196028" lon="-105.1128727"><ele>1689.93</ele><time>2018-06-05T16:59:22-06:00</time><course>292.49</course><roll>-7.31</roll><pitch>6.34</pitch><mode /></trkpt><trkpt lat="39.919604" lon="-105.1128723"><ele>1689.94</ele><time>2018-06-05T16:59:23-06:00</time><course>292.45</course><roll>-7.33</roll><pitch>6.37</pitch><mode /></trkpt><trkpt lat="39.9196041" lon="-105.1128716"><ele>1689.9</ele><time>2018-06-05T16:59:23-06:00</time><course>292.39</course><roll>-7.33</roll><pitch>6.38</pitch><mode /></trkpt><trkpt lat="39.9196057" lon="-105.1128691"><ele>1689.71</ele><time>2018-06-05T16:59:23-06:00</time><course>292.34</course><roll>-7.3</roll><pitch>6.49</pitch><mode /></trkpt><trkpt lat="39.9196069" lon="-105.1128662"><ele>1689.5</ele><time>2018-06-05T16:59:23-06:00</time><course>292.34</course><roll>-4.94</roll><pitch>4.88</pitch><mode /></trkpt><trkpt lat="39.9196089" lon="-105.1128639"><ele>1689.37</ele><time>2018-06-05T16:59:24-06:00</time><course>291.42</course><roll>1.2</roll><pitch>1.86</pitch><mode /></trkpt><trkpt lat="39.9196093" lon="-105.112866"><ele>1689.65</ele><time>2018-06-05T16:59:24-06:00</time><course>290.49</course><roll>0.55</roll><pitch>-0.14</pitch><mode /></trkpt><trkpt lat="39.9196137" lon="-105.1128649"><ele>1690.01</ele><time>2018-06-05T16:59:24-06:00</time><course>290.29</course><roll>1.2</roll><pitch>-0.92</pitch><mode /></trkpt><trkpt lat="39.9196151" lon="-105.1128639"><ele>1690.17</ele><time>2018-06-05T16:59:24-06:00</time><course>290.57</course><roll>6.41</roll><pitch>-2.26</pitch><mode /></trkpt><trkpt lat="39.9196191" lon="-105.1128626"><ele>1690.38</ele><time>2018-06-05T16:59:24-06:00</time><course>290.66</course><roll>-0.05</roll><pitch>-1.59</pitch><mode /></trkpt><trkpt lat="39.9196249" lon="-105.1128608"><ele>1690.58</ele><time>2018-06-05T16:59:25-06:00</time><course>290.36</course><roll>0.76</roll><pitch>-1.68</pitch><mode /></trkpt><trkpt lat="39.9196302" lon="-105.1128588"><ele>1690.84</ele><time>2018-06-05T16:59:25-06:00</time><course>290.37</course><roll>-0.39</roll><pitch>-0.07</pitch><mode /></trkpt><trkpt lat="39.9196324" lon="-105.1128571"><ele>1691.02</ele><time>2018-06-05T16:59:25-06:00</time><course>290.22</course><roll>3.79</roll><pitch>8.51</pitch><mode /></trkpt><trkpt lat="39.9196311" lon="-105.1128606"><ele>1691.17</ele><time>2018-06-05T16:59:25-06:00</time><course>291.07</course><roll>-0.06</roll><pitch>-2.46</pitch><mode /></trkpt><trkpt lat="39.9196308" lon="-105.1128621"><ele>1691.19</ele><time>2018-06-05T16:59:25-06:00</time><course>295.51</course><roll>-20.27</roll><pitch>-20.55</pitch><mode /></trkpt><trkpt lat="39.9196314" lon="-105.1128594"><ele>1690.9</ele><time>2018-06-05T16:59:26-06:00</time><course>288.06</course><roll>-8.81</roll><pitch>5.5</pitch><mode /></trkpt><trkpt lat="39.9196284" lon="-105.1128598"><ele>1690.75</ele><time>2018-06-05T16:59:26-06:00</time><course>295.5</course><roll>32.6</roll><pitch>21.66</pitch><mode /></trkpt><trkpt lat="39.9196256" lon="-105.1128608"><ele>1690.28</ele><time>2018-06-05T16:59:26-06:00</time><course>300.87</course><roll>-27.43</roll><pitch>-5.34</pitch><mode /></trkpt><trkpt lat="39.9196204" lon="-105.1128587"><ele>1689.56</ele><time>2018-06-05T16:59:26-06:00</time><course>1.72</course><roll>-162.17</roll><pitch>-2.21</pitch><mode /></trkpt><trkpt lat="39.9196166" lon="-105.1128592"><ele>1689.42</ele><time>2018-06-05T16:59:26-06:00</time><course>3.81</course><roll>-162.51</roll><pitch>5.45</pitch><mode /></trkpt><trkpt lat="39.9196128" lon="-105.1128607"><ele>1689.39</ele><time>2018-06-05T16:59:27-06:00</time><course>5.22</course><roll>-162.64</roll><pitch>8.49</pitch><mode /></trkpt><trkpt lat="39.9197149" lon="-105.1128456"><ele>1716.2</ele><time>2018-06-05T16:59:35-06:00</time><course>24.64</course><roll>-26.34</roll><pitch>-6.29</pitch><mode /></trkpt><trkpt lat="39.9196624" lon="-105.1128972"><ele>1714.65</ele><time>2018-06-05T16:59:35-06:00</time><course>21.37</course><roll>-19.73</roll><pitch>-5.27</pitch><mode /></trkpt><trkpt lat="39.9196328" lon="-105.1129214"><ele>1712.75</ele><time>2018-06-05T16:59:35-06:00</time><course>15.5</course><roll>-17.37</roll><pitch>-4.71</pitch><mode /></trkpt><trkpt lat="39.919613" lon="-105.1129379"><ele>1711.58</ele><time>2018-06-05T16:59:35-06:00</time><course>14.08</course><roll>-16.53</roll><pitch>-6.21</pitch><mode /></trkpt><trkpt lat="39.9195988" lon="-105.1130056"><ele>1709.18</ele><time>2018-06-05T16:59:36-06:00</time><course>23.37</course><roll>-6.17</roll><pitch>1.66</pitch><mode /></trkpt><trkpt lat="39.9195783" lon="-105.1130264"><ele>1709.4</ele><time>2018-06-05T16:59:36-06:00</time><course>24.13</course><roll>-5.33</roll><pitch>-0.71</pitch><mode /></trkpt><trkpt lat="39.9195607" lon="-105.1130393"><ele>1710.31</ele><time>2018-06-05T16:59:36-06:00</time><course>24.8</course><roll>0.3</roll><pitch>-7.07</pitch><mode /></trkpt><trkpt lat="39.9195232" lon="-105.1130426"><ele>1711.09</ele><time>2018-06-05T16:59:36-06:00</time><course>30.67</course><roll>8.63</roll><pitch>-13.04</pitch><mode /></trkpt><trkpt lat="39.9194993" lon="-105.1130688"><ele>1709.86</ele><time>2018-06-05T16:59:37-06:00</time><course>33.23</course><roll>8.96</roll><pitch>-12.81</pitch><mode /></trkpt><trkpt lat="39.9195011" lon="-105.113099"><ele>1709.15</ele><time>2018-06-05T16:59:37-06:00</time><course>31.18</course><roll>11.56</roll><pitch>-13.2</pitch><mode /></trkpt><trkpt lat="39.9195188" lon="-105.1131091"><ele>1709.28</ele><time>2018-06-05T16:59:37-06:00</time><course>33.63</course><roll>10.4</roll><pitch>0.22</pitch><mode /></trkpt><trkpt lat="39.9195348" lon="-105.1130975"><ele>1709.25</ele><time>2018-06-05T16:59:37-06:00</time><course>33.85</course><roll>11.33</roll><pitch>0.83</pitch><mode /></trkpt><trkpt lat="39.9195443" lon="-105.1130871"><ele>1709.54</ele><time>2018-06-05T16:59:37-06:00</time><course>34.22</course><roll>11.27</roll><pitch>0.94</pitch><mode /></trkpt><trkpt lat="39.9195492" lon="-105.1130834"><ele>1709.54</ele><time>2018-06-05T16:59:38-06:00</time><course>34.61</course><roll>11.21</roll><pitch>0.98</pitch><mode /></trkpt><trkpt lat="39.91955" lon="-105.1130757"><ele>1709.32</ele><time>2018-06-05T16:59:38-06:00</time><course>34.99</course><roll>11.16</roll><pitch>1.02</pitch><mode /></trkpt><trkpt lat="39.9195422" lon="-105.113076"><ele>1709.03</ele><time>2018-06-05T16:59:38-06:00</time><course>35.36</course><roll>11.1</roll><pitch>1.04</pitch><mode /></trkpt><trkpt lat="39.9195405" lon="-105.1130816"><ele>1709</ele><time>2018-06-05T16:59:38-06:00</time><course>35.75</course><roll>11.04</roll><pitch>1.06</pitch><mode /></trkpt><trkpt lat="39.9195449" lon="-105.1130856"><ele>1709.02</ele><time>2018-06-05T16:59:38-06:00</time><course>36.12</course><roll>10.98</roll><pitch>1.09</pitch><mode /></trkpt><trkpt lat="39.9195484" lon="-105.1130883"><ele>1709.11</ele><time>2018-06-05T16:59:39-06:00</time><course>36.5</course><roll>10.93</roll><pitch>1.12</pitch><mode /></trkpt><trkpt lat="39.9195557" lon="-105.1130912"><ele>1709.28</ele><time>2018-06-05T16:59:39-06:00</time><course>36.88</course><roll>10.88</roll><pitch>1.18</pitch><mode /></trkpt><trkpt lat="39.919561" lon="-105.1130927"><ele>1709.54</ele><time>2018-06-05T16:59:39-06:00</time><course>37.24</course><roll>10.83</roll><pitch>1.23</pitch><mode /></trkpt><trkpt lat="39.9195614" lon="-105.1130933"><ele>1709.61</ele><time>2018-06-05T16:59:39-06:00</time><course>37.62</course><roll>10.76</roll><pitch>1.36</pitch><mode /></trkpt><trkpt lat="39.9195607" lon="-105.113094"><ele>1709.75</ele><time>2018-06-05T16:59:39-06:00</time><course>38.04</course><roll>10.61</roll><pitch>1.71</pitch><mode /></trkpt><trkpt lat="39.9195611" lon="-105.1130933"><ele>1709.62</ele><time>2018-06-05T16:59:40-06:00</time><course>38.39</course><roll>10.52</roll><pitch>1.69</pitch><mode /></trkpt><trkpt lat="39.9195634" lon="-105.1130891"><ele>1709.73</ele><time>2018-06-05T16:59:40-06:00</time><course>38.72</course><roll>10.46</roll><pitch>1.61</pitch><mode /></trkpt><trkpt lat="39.9195637" lon="-105.1130878"><ele>1709.77</ele><time>2018-06-05T16:59:40-06:00</time><course>39.06</course><roll>10.43</roll><pitch>1.63</pitch><mode /></trkpt><trkpt lat="39.9195658" lon="-105.1130872"><ele>1710.04</ele><time>2018-06-05T16:59:40-06:00</time><course>39.42</course><roll>10.37</roll><pitch>1.69</pitch><mode /></trkpt><trkpt lat="39.9195676" lon="-105.1130896"><ele>1710.38</ele><time>2018-06-05T16:59:40-06:00</time><course>39.76</course><roll>10.33</roll><pitch>1.69</pitch><mode /></trkpt><trkpt lat="39.919574" lon="-105.1130884"><ele>1710.34</ele><time>2018-06-05T16:59:41-06:00</time><course>40.11</course><roll>10.29</roll><pitch>1.72</pitch><mode /></trkpt><trkpt lat="39.9195846" lon="-105.1130836"><ele>1709.79</ele><time>2018-06-05T16:59:41-06:00</time><course>40.45</course><roll>10.24</roll><pitch>1.73</pitch><mode /></trkpt><trkpt lat="39.9195964" lon="-105.1130749"><ele>1708.92</ele><time>2018-06-05T16:59:41-06:00</time><course>40.81</course><roll>10.18</roll><pitch>1.8</pitch><mode /></trkpt><trkpt lat="39.919609" lon="-105.1130662"><ele>1708.62</ele><time>2018-06-05T16:59:41-06:00</time><course>41.16</course><roll>10.12</roll><pitch>1.85</pitch><mode /></trkpt><trkpt lat="39.9196102" lon="-105.1129013"><ele>1689.99</ele><time>2018-06-05T17:00:13-06:00</time><course>294.4</course><roll>-3.18</roll><pitch>11.35</pitch><mode /></trkpt><trkpt lat="39.9196118" lon="-105.112899"><ele>1689.91</ele><time>2018-06-05T17:00:13-06:00</time><course>294.37</course><roll>-3.24</roll><pitch>11.38</pitch><mode /></trkpt><trkpt lat="39.9196131" lon="-105.112897"><ele>1689.82</ele><time>2018-06-05T17:00:13-06:00</time><course>294.35</course><roll>-3.3</roll><pitch>11.42</pitch><mode /></trkpt><trkpt lat="39.9196146" lon="-105.1128942"><ele>1689.61</ele><time>2018-06-05T17:00:13-06:00</time><course>294.32</course><roll>-3.36</roll><pitch>11.46</pitch><mode /></trkpt><trkpt lat="39.919616" lon="-105.1128928"><ele>1689.59</ele><time>2018-06-05T17:00:14-06:00</time><course>294.28</course><roll>-3.42</roll><pitch>11.5</pitch><mode /></trkpt><trkpt lat="39.9196175" lon="-105.1128911"><ele>1689.6</ele><time>2018-06-05T17:00:14-06:00</time><course>294.27</course><roll>-3.48</roll><pitch>11.54</pitch><mode /></trkpt><trkpt lat="39.919619" lon="-105.11289"><ele>1689.72</ele><time>2018-06-05T17:00:14-06:00</time><course>294.26</course><roll>-3.53</roll><pitch>11.57</pitch><mode /></trkpt><trkpt lat="39.9196196" lon="-105.1128894"><ele>1689.75</ele><time>2018-06-05T17:00:14-06:00</time><course>294.23</course><roll>-3.59</roll><pitch>11.61</pitch><mode /></trkpt><trkpt lat="39.91962" lon="-105.1128892"><ele>1689.79</ele><time>2018-06-05T17:00:14-06:00</time><course>294.19</course><roll>-3.64</roll><pitch>11.64</pitch><mode /></trkpt><trkpt lat="39.9196211" lon="-105.112888"><ele>1689.77</ele><time>2018-06-05T17:00:15-06:00</time><course>294.13</course><roll>-3.75</roll><pitch>11.7</pitch><mode /></trkpt><trkpt lat="39.9196227" lon="-105.1128874"><ele>1689.83</ele><time>2018-06-05T17:00:15-06:00</time><course>295.5</course><roll>-1.88</roll><pitch>-3.65</pitch><mode /></trkpt><trkpt lat="39.9196245" lon="-105.1128837"><ele>1689.72</ele><time>2018-06-05T17:00:15-06:00</time><course>300.03</course><roll>-11.92</roll><pitch>-52.01</pitch><mode /></trkpt><trkpt lat="39.919624" lon="-105.1128833"><ele>1689.65</ele><time>2018-06-05T17:00:16-06:00</time><course>8.39</course><roll>-83.06</roll><pitch>-78.21</pitch><mode /></trkpt><trkpt lat="39.9196219" lon="-105.1128845"><ele>1689.67</ele><time>2018-06-05T17:00:16-06:00</time><course>102.8</course><roll>-172.89</roll><pitch>-36.24</pitch><mode /></trkpt><trkpt lat="39.9196217" lon="-105.1128819"><ele>1689.55</ele><time>2018-06-05T17:00:16-06:00</time><course>105.31</course><roll>-172.22</roll><pitch>-11.68</pitch><mode /></trkpt><trkpt lat="39.9196216" lon="-105.1128817"><ele>1689.5</ele><time>2018-06-05T17:00:16-06:00</time><course>105.54</course><roll>-172.34</roll><pitch>-10.36</pitch><mode /></trkpt><trkpt lat="39.9196213" lon="-105.1128811"><ele>1689.44</ele><time>2018-06-05T17:00:16-06:00</time><course>105.71</course><roll>-172.39</roll><pitch>-10.46</pitch><mode /></trkpt><trkpt lat="39.9196214" lon="-105.1128805"><ele>1689.38</ele><time>2018-06-05T17:00:17-06:00</time><course>105.86</course><roll>-172.52</roll><pitch>-10.5</pitch><mode /></trkpt><trkpt lat="39.9196212" lon="-105.1128798"><ele>1689.23</ele><time>2018-06-05T17:00:17-06:00</time><course>106.16</course><roll>-172.75</roll><pitch>-10.57</pitch><mode /></trkpt><trkpt lat="39.919621" lon="-105.1128801"><ele>1689.14</ele><time>2018-06-05T17:00:17-06:00</time><course>106.31</course><roll>-172.87</roll><pitch>-10.6</pitch><mode /></trkpt><trkpt lat="39.9196207" lon="-105.1128803"><ele>1689.08</ele><time>2018-06-05T17:00:17-06:00</time><course>106.44</course><roll>-172.99</roll><pitch>-10.64</pitch><mode /></trkpt><trkpt lat="39.9196206" lon="-105.11288"><ele>1689</ele><time>2018-06-05T17:00:18-06:00</time><course>106.58</course><roll>-173.1</roll><pitch>-10.67</pitch><mode /></trkpt><trkpt lat="39.9196204" lon="-105.1128798"><ele>1688.95</ele><time>2018-06-05T17:00:18-06:00</time><course>106.72</course><roll>-173.21</roll><pitch>-10.7</pitch><mode /></trkpt><trkpt lat="39.9196206" lon="-105.1128796"><ele>1688.89</ele><time>2018-06-05T17:00:18-06:00</time><course>106.85</course><roll>-173.32</roll><pitch>-10.74</pitch><mode /></trkpt><trkpt lat="39.91962" lon="-105.11288"><ele>1688.84</ele><time>2018-06-05T17:00:18-06:00</time><course>106.98</course><roll>-173.42</roll><pitch>-10.76</pitch><mode /></trkpt><trkpt lat="39.9196195" lon="-105.1128808"><ele>1688.76</ele><time>2018-06-05T17:00:18-06:00</time><course>107.11</course><roll>-173.53</roll><pitch>-10.79</pitch><mode /></trkpt><trkpt lat="39.9196189" lon="-105.1128817"><ele>1688.65</ele><time>2018-06-05T17:00:19-06:00</time><course>107.23</course><roll>-173.62</roll><pitch>-10.82</pitch><mode /></trkpt><trkpt lat="39.9196191" lon="-105.112881"><ele>1688.59</ele><time>2018-06-05T17:00:19-06:00</time><course>107.35</course><roll>-173.72</roll><pitch>-10.85</pitch><mode /></trkpt><trkpt lat="39.919619" lon="-105.1128801"><ele>1688.52</ele><time>2018-06-05T17:00:19-06:00</time><course>107.48</course><roll>-173.82</roll><pitch>-10.88</pitch><mode /></trkpt><trkpt lat="39.9196195" lon="-105.112879"><ele>1688.32</ele><time>2018-06-05T17:00:19-06:00</time><course>107.59</course><roll>-173.91</roll><pitch>-10.9</pitch><mode /></trkpt><trkpt lat="39.9196192" lon="-105.1128789"><ele>1688.27</ele><time>2018-06-05T17:00:19-06:00</time><course>107.7</course><roll>-174</roll><pitch>-10.92</pitch><mode /></trkpt><trkpt lat="39.9196186" lon="-105.1128794"><ele>1688.19</ele><time>2018-06-05T17:00:20-06:00</time><course>107.81</course><roll>-174.09</roll><pitch>-10.95</pitch><mode /></trkpt><trkpt lat="39.9196185" lon="-105.1128796"><ele>1688.14</ele><time>2018-06-05T17:00:20-06:00</time><course>107.92</course><roll>-174.18</roll><pitch>-10.97</pitch><mode /></trkpt><trkpt lat="39.9196179" lon="-105.1128795"><ele>1688.05</ele><time>2018-06-05T17:00:20-06:00</time><course>108.03</course><roll>-174.27</roll><pitch>-10.99</pitch><mode /></trkpt><trkpt lat="39.9196174" lon="-105.1128793"><ele>1688</ele><time>2018-06-05T17:00:20-06:00</time><course>108.14</course><roll>-174.35</roll><pitch>-11.01</pitch><mode /></trkpt><trkpt lat="39.9196168" lon="-105.1128782"><ele>1687.9</ele><time>2018-06-05T17:00:21-06:00</time><course>108.45</course><roll>-174.59</roll><pitch>-11.06</pitch><mode /></trkpt><trkpt lat="39.9196167" lon="-105.1128779"><ele>1687.79</ele><time>2018-06-05T17:00:21-06:00</time><course>108.55</course><roll>-174.83</roll><pitch>-11.1</pitch><mode /></trkpt><trkpt lat="39.9196166" lon="-105.1128775"><ele>1687.75</ele><time>2018-06-05T17:00:21-06:00</time><course>108.75</course><roll>-174.98</roll><pitch>-14.52</pitch><mode /></trkpt><trkpt lat="39.9196167" lon="-105.1128773"><ele>1687.7</ele><time>2018-06-05T17:00:21-06:00</time><course>112.5</course><roll>-179.16</roll><pitch>-22.62</pitch><mode /></trkpt><trkpt lat="39.9196169" lon="-105.1128768"><ele>1687.64</ele><time>2018-06-05T17:00:22-06:00</time><course>130.8</course><roll>170.49</roll><pitch>-40.16</pitch><mode /></trkpt><trkpt lat="39.9196149" lon="-105.1128776"><ele>1687.74</ele><time>2018-06-05T17:00:22-06:00</time><course>171.77</course><roll>144.42</roll><pitch>-43.86</pitch><mode /></trkpt><trkpt lat="39.9196118" lon="-105.1128802"><ele>1687.86</ele><time>2018-06-05T17:00:22-06:00</time><course>216.28</course><roll>117.41</roll><pitch>-31.55</pitch><mode /></trkpt><trkpt lat="39.9196105" lon="-105.1128819"><ele>1687.83</ele><time>2018-06-05T17:00:22-06:00</time><course>255.42</course><roll>86.42</roll><pitch>-9.47</pitch><mode /></trkpt><trkpt lat="39.9196133" lon="-105.1128782"><ele>1687.73</ele><time>2018-06-05T17:00:22-06:00</time><course>278</course><roll>60.98</roll><pitch>10.91</pitch><mode /></trkpt><trkpt lat="39.9196144" lon="-105.1128768"><ele>1687.81</ele><time>2018-06-05T17:00:23-06:00</time><course>269.03</course><roll>41.74</roll><pitch>13.13</pitch><mode /></trkpt><trkpt lat="39.9196152" lon="-105.1128746"><ele>1687.71</ele><time>2018-06-05T17:00:23-06:00</time><course>251.37</course><roll>28.94</roll><pitch>9.91</pitch><mode /></trkpt><trkpt lat="39.9196166" lon="-105.1128714"><ele>1687.34</ele><time>2018-06-05T17:00:23-06:00</time><course>245.34</course><roll>10.44</roll><pitch>2.9</pitch><mode /></trkpt><trkpt lat="39.9196191" lon="-105.1128707"><ele>1687.34</ele><time>2018-06-05T17:00:24-06:00</time><course>250.78</course><roll>10.84</roll><pitch>3.93</pitch><mode /></trkpt><trkpt lat="39.9196189" lon="-105.1128726"><ele>1687.47</ele><time>2018-06-05T17:00:24-06:00</time><course>249.19</course><roll>8.71</roll><pitch>7.86</pitch><mode /></trkpt><trkpt lat="39.9196197" lon="-105.1128725"><ele>1687.53</ele><time>2018-06-05T17:00:24-06:00</time><course>242.67</course><roll>0.47</roll><pitch>5.87</pitch><mode /></trkpt><trkpt lat="39.9196191" lon="-105.1128743"><ele>1687.7</ele><time>2018-06-05T17:00:24-06:00</time><course>244.23</course><roll>0.29</roll><pitch>4.4</pitch><mode /></trkpt><trkpt lat="39.9196183" lon="-105.1128762"><ele>1687.76</ele><time>2018-06-05T17:00:24-06:00</time><course>245.82</course><roll>0.99</roll><pitch>0.91</pitch><mode /></trkpt><trkpt lat="39.9196179" lon="-105.1128763"><ele>1687.73</ele><time>2018-06-05T17:00:25-06:00</time><course>251.54</course><roll>3.72</roll><pitch>3.2</pitch><mode /></trkpt><trkpt lat="39.9196177" lon="-105.1128766"><ele>1687.71</ele><time>2018-06-05T17:00:25-06:00</time><course>256.66</course><roll>10.92</roll><pitch>10.11</pitch><mode /></trkpt><trkpt lat="39.9196174" lon="-105.1128783"><ele>1687.8</ele><time>2018-06-05T17:00:25-06:00</time><course>260.43</course><roll>11.49</roll><pitch>12.42</pitch><mode /></trkpt><trkpt lat="39.9196161" lon="-105.1128812"><ele>1688.09</ele><time>2018-06-05T17:00:25-06:00</time><course>265.32</course><roll>18.74</roll><pitch>9.08</pitch><mode /></trkpt><trkpt lat="39.919612" lon="-105.1128867"><ele>1688.43</ele><time>2018-06-05T17:00:25-06:00</time><course>267</course><roll>21.67</roll><pitch>6.49</pitch><mode /></trkpt><trkpt lat="39.9196112" lon="-105.1128885"><ele>1688.61</ele><time>2018-06-05T17:00:26-06:00</time><course>266.62</course><roll>20.23</roll><pitch>9.17</pitch><mode /></trkpt><trkpt lat="39.9196117" lon="-105.1128896"><ele>1688.73</ele><time>2018-06-05T17:00:26-06:00</time><course>265.6</course><roll>20.31</roll><pitch>6.46</pitch><mode /></trkpt><trkpt lat="39.9196121" lon="-105.1128909"><ele>1688.91</ele><time>2018-06-05T17:00:26-06:00</time><course>265.21</course><roll>21.36</roll><pitch>3.55</pitch><mode /></trkpt><trkpt lat="39.9196129" lon="-105.1128906"><ele>1688.97</ele><time>2018-06-05T17:00:26-06:00</time><course>267.14</course><roll>20.91</roll><pitch>3.11</pitch><mode /></trkpt><trkpt lat="39.9196119" lon="-105.1128932"><ele>1689.21</ele><time>2018-06-05T17:00:26-06:00</time><course>267.3</course><roll>20.1</roll><pitch>3.5</pitch><mode /></trkpt><trkpt lat="39.9196109" lon="-105.1128943"><ele>1689.4</ele><time>2018-06-05T17:00:27-06:00</time><course>266.94</course><roll>19.78</roll><pitch>0.67</pitch><mode /></trkpt><trkpt lat="39.9196099" lon="-105.112897"><ele>1689.77</ele><time>2018-06-05T17:00:27-06:00</time><course>265.89</course><roll>20.09</roll><pitch>-2.29</pitch><mode /></trkpt><trkpt lat="39.9196091" lon="-105.1128982"><ele>1689.91</ele><time>2018-06-05T17:00:27-06:00</time><course>265.62</course><roll>20.3</roll><pitch>-3.03</pitch><mode /></trkpt><trkpt lat="39.919609" lon="-105.112898"><ele>1689.94</ele><time>2018-06-05T17:00:27-06:00</time><course>265.64</course><roll>20.28</roll><pitch>-3.17</pitch><mode /></trkpt><trkpt lat="39.9196091" lon="-105.1128978"><ele>1689.96</ele><time>2018-06-05T17:00:27-06:00</time><course>265.33</course><roll>19.57</roll><pitch>-2.7</pitch><mode /></trkpt><trkpt lat="39.9196087" lon="-105.112898"><ele>1689.95</ele><time>2018-06-05T17:00:28-06:00</time><course>265.47</course><roll>19.27</roll><pitch>-1.89</pitch><mode /></trkpt><trkpt lat="39.919608" lon="-105.1129006"><ele>1690.19</ele><time>2018-06-05T17:00:28-06:00</time><course>265.32</course><roll>21.11</roll><pitch>-2.03</pitch><mode /></trkpt><trkpt lat="39.9196063" lon="-105.1129026"><ele>1690.28</ele><time>2018-06-05T17:00:28-06:00</time><course>265.94</course><roll>18.71</roll><pitch>1.32</pitch><mode /></trkpt><trkpt lat="39.9196043" lon="-105.1129055"><ele>1690.38</ele><time>2018-06-05T17:00:28-06:00</time><course>262.92</course><roll>16.53</roll><pitch>0.26</pitch><mode /></trkpt><trkpt lat="39.9196" lon="-105.1129145"><ele>1691.23</ele><time>2018-06-05T17:00:28-06:00</time><course>261.16</course><roll>10.79</roll><pitch>0.7</pitch><mode /></trkpt><trkpt lat="39.9195993" lon="-105.1129184"><ele>1691.61</ele><time>2018-06-05T17:00:29-06:00</time><course>261.14</course><roll>12.75</roll><pitch>1.28</pitch><mode /></trkpt><trkpt lat="39.9195995" lon="-105.1129208"><ele>1691.91</ele><time>2018-06-05T17:00:29-06:00</time><course>263.15</course><roll>13.59</roll><pitch>7.29</pitch><mode /></trkpt><trkpt lat="39.9195989" lon="-105.1129223"><ele>1692.09</ele><time>2018-06-05T17:00:29-06:00</time><course>262.8</course><roll>15.19</roll><pitch>8.93</pitch><mode /></trkpt><trkpt lat="39.9195975" lon="-105.1129258"><ele>1692.42</ele><time>2018-06-05T17:00:29-06:00</time><course>261.94</course><roll>14.25</roll><pitch>11.15</pitch><mode /></trkpt><trkpt lat="39.9195976" lon="-105.1129274"><ele>1692.62</ele><time>2018-06-05T17:00:29-06:00</time><course>260.84</course><roll>14.63</roll><pitch>10.14</pitch><mode /></trkpt><trkpt lat="39.9195953" lon="-105.1129305"><ele>1693.02</ele><time>2018-06-05T17:00:30-06:00</time><course>259.14</course><roll>16.98</roll><pitch>7.99</pitch><mode /></trkpt><trkpt lat="39.9195922" lon="-105.1129322"><ele>1693.27</ele><time>2018-06-05T17:00:30-06:00</time><course>260.31</course><roll>16.85</roll><pitch>10.83</pitch><mode /></trkpt><trkpt lat="39.9195911" lon="-105.1129309"><ele>1693.27</ele><time>2018-06-05T17:00:30-06:00</time><course>260.02</course><roll>16.32</roll><pitch>10.35</pitch><mode /></trkpt><trkpt lat="39.9195901" lon="-105.1129323"><ele>1693.55</ele><time>2018-06-05T17:00:30-06:00</time><course>260.63</course><roll>16.62</roll><pitch>10.59</pitch><mode /></trkpt><trkpt lat="39.919587" lon="-105.1129346"><ele>1693.77</ele><time>2018-06-05T17:00:30-06:00</time><course>260.1</course><roll>17.15</roll><pitch>10.68</pitch><mode /></trkpt><trkpt lat="39.9195882" lon="-105.1129302"><ele>1693.59</ele><time>2018-06-05T17:00:31-06:00</time><course>259.3</course><roll>16.91</roll><pitch>10.12</pitch><mode /></trkpt><trkpt lat="39.9195888" lon="-105.1129285"><ele>1693.6</ele><time>2018-06-05T17:00:31-06:00</time><course>258.68</course><roll>17.55</roll><pitch>10.03</pitch><mode /></trkpt><trkpt lat="39.919592" lon="-105.1129225"><ele>1693.44</ele><time>2018-06-05T17:00:31-06:00</time><course>259.92</course><roll>18.58</roll><pitch>12.24</pitch><mode /></trkpt><trkpt lat="39.9195924" lon="-105.112918"><ele>1693.23</ele><time>2018-06-05T17:00:31-06:00</time><course>260.18</course><roll>19.42</roll><pitch>11.77</pitch><mode /></trkpt><trkpt lat="39.9196528" lon="-105.1128666"><ele>1690.37</ele><time>2018-06-05T17:01:37-06:00</time><course>296.37</course><roll>-0.37</roll><pitch>8.03</pitch><mode /></trkpt><trkpt lat="39.9196526" lon="-105.1128662"><ele>1690.31</ele><time>2018-06-05T17:01:37-06:00</time><course>296.36</course><roll>-0.41</roll><pitch>8.05</pitch><mode /></trkpt><trkpt lat="39.9196523" lon="-105.1128655"><ele>1690.2</ele><time>2018-06-05T17:01:37-06:00</time><course>296.35</course><roll>-0.44</roll><pitch>8.08</pitch><mode /></trkpt><trkpt lat="39.9196515" lon="-105.1128657"><ele>1690.2</ele><time>2018-06-05T17:01:37-06:00</time><course>296.33</course><roll>-0.48</roll><pitch>8.1</pitch><mode /></trkpt><trkpt lat="39.9196517" lon="-105.1128641"><ele>1690.04</ele><time>2018-06-05T17:01:38-06:00</time><course>296.33</course><roll>-0.51</roll><pitch>8.13</pitch><mode /></trkpt><trkpt lat="39.9196512" lon="-105.1128637"><ele>1690.01</ele><time>2018-06-05T17:01:38-06:00</time><course>296.31</course><roll>-0.54</roll><pitch>8.14</pitch><mode /></trkpt><trkpt lat="39.9196509" lon="-105.1128629"><ele>1689.88</ele><time>2018-06-05T17:01:38-06:00</time><course>295.69</course><roll>-0.79</roll><pitch>8.11</pitch><mode /></trkpt><trkpt lat="39.9196511" lon="-105.1128611"><ele>1689.69</ele><time>2018-06-05T17:01:38-06:00</time><course>293.41</course><roll>-3.94</roll><pitch>2.8</pitch><mode /></trkpt><trkpt lat="39.9196505" lon="-105.112861"><ele>1689.67</ele><time>2018-06-05T17:01:38-06:00</time><course>295.93</course><roll>-4.37</roll><pitch>-11.29</pitch><mode /></trkpt><trkpt lat="39.9196498" lon="-105.1128618"><ele>1689.72</ele><time>2018-06-05T17:01:39-06:00</time><course>296.66</course><roll>-0.65</roll><pitch>-2.6</pitch><mode /></trkpt><trkpt lat="39.9196483" lon="-105.1128613"><ele>1689.69</ele><time>2018-06-05T17:01:39-06:00</time><course>296.49</course><roll>1</roll><pitch>1.13</pitch><mode /></trkpt><trkpt lat="39.9196459" lon="-105.1128603"><ele>1689.59</ele><time>2018-06-05T17:01:39-06:00</time><course>295.78</course><roll>1.69</roll><pitch>3.01</pitch><mode /></trkpt><trkpt lat="39.9196455" lon="-105.1128584"><ele>1689.94</ele><time>2018-06-05T17:01:39-06:00</time><course>295.02</course><roll>0.59</roll><pitch>1.85</pitch><mode /></trkpt><trkpt lat="39.9196471" lon="-105.1128543"><ele>1690.76</ele><time>2018-06-05T17:01:39-06:00</time><course>294.15</course><roll>1.21</roll><pitch>1.46</pitch><mode /></trkpt><trkpt lat="39.9196481" lon="-105.1128481"><ele>1691.32</ele><time>2018-06-05T17:01:40-06:00</time><course>294.09</course><roll>-0.06</roll><pitch>1.87</pitch><mode /></trkpt><trkpt lat="39.9196495" lon="-105.1128436"><ele>1692.26</ele><time>2018-06-05T17:01:40-06:00</time><course>293.95</course><roll>-13.21</roll><pitch>-11.75</pitch><mode /></trkpt><trkpt lat="39.9196529" lon="-105.1128349"><ele>1692.45</ele><time>2018-06-05T17:01:40-06:00</time><course>293.96</course><roll>3.17</roll><pitch>-31.63</pitch><mode /></trkpt><trkpt lat="39.9196574" lon="-105.1128267"><ele>1692.37</ele><time>2018-06-05T17:01:40-06:00</time><course>249.41</course><roll>147.68</roll><pitch>-51.25</pitch><mode /></trkpt><trkpt lat="39.9196648" lon="-105.1128186"><ele>1691.98</ele><time>2018-06-05T17:01:40-06:00</time><course>253.8</course><roll>-115.49</roll><pitch>-56.7</pitch><mode /></trkpt><trkpt lat="39.9196693" lon="-105.1128141"><ele>1691.4</ele><time>2018-06-05T17:01:41-06:00</time><course>231.7</course><roll>-5.84</roll><pitch>-63.28</pitch><mode /></trkpt><trkpt lat="39.919673" lon="-105.1128165"><ele>1690.83</ele><time>2018-06-05T17:01:41-06:00</time><course>167.01</course><roll>113.95</roll><pitch>-60.82</pitch><mode /></trkpt><trkpt lat="39.9196781" lon="-105.1128193"><ele>1689.91</ele><time>2018-06-05T17:01:41-06:00</time><course>123.38</course><roll>157.08</roll><pitch>-5.62</pitch><mode /></trkpt><trkpt lat="39.9196847" lon="-105.1128228"><ele>1689.63</ele><time>2018-06-05T17:01:41-06:00</time><course>165.6</course><roll>117.78</roll><pitch>-1.04</pitch><mode /></trkpt><trkpt lat="39.9196926" lon="-105.1128223"><ele>1689.42</ele><time>2018-06-05T17:01:41-06:00</time><course>195.13</course><roll>136.72</roll><pitch>10.6</pitch><mode /></trkpt><trkpt lat="39.9197" lon="-105.1128207"><ele>1689.37</ele><time>2018-06-05T17:01:42-06:00</time><course>194.89</course><roll>160.01</roll><pitch>13.23</pitch><mode /></trkpt><trkpt lat="39.9197065" lon="-105.1128194"><ele>1689.41</ele><time>2018-06-05T17:01:42-06:00</time><course>193.12</course><roll>162.69</roll><pitch>13.28</pitch><mode /></trkpt><trkpt lat="39.9197041" lon="-105.112813"><ele>1689.12</ele><time>2018-06-05T17:01:42-06:00</time><course>193.29</course><roll>162.78</roll><pitch>12.98</pitch><mode /></trkpt><trkpt lat="39.9197029" lon="-105.1128113"><ele>1688.9</ele><time>2018-06-05T17:01:42-06:00</time><course>193.5</course><roll>162.91</roll><pitch>12.66</pitch><mode /></trkpt><trkpt lat="39.9197032" lon="-105.1128082"><ele>1688.67</ele><time>2018-06-05T17:01:42-06:00</time><course>193.72</course><roll>163.05</roll><pitch>12.34</pitch><mode /></trkpt><trkpt lat="39.9197034" lon="-105.1128061"><ele>1688.49</ele><time>2018-06-05T17:01:43-06:00</time><course>193.94</course><roll>163.19</roll><pitch>12.04</pitch><mode /></trkpt><trkpt lat="39.9197017" lon="-105.1128077"><ele>1688.32</ele><time>2018-06-05T17:01:43-06:00</time><course>194.16</course><roll>163.33</roll><pitch>11.74</pitch><mode /></trkpt><trkpt lat="39.919702" lon="-105.1128063"><ele>1688.14</ele><time>2018-06-05T17:01:43-06:00</time><course>194.4</course><roll>163.46</roll><pitch>11.45</pitch><mode /></trkpt><trkpt lat="39.9197001" lon="-105.1128091"><ele>1687.99</ele><time>2018-06-05T17:01:43-06:00</time><course>194.64</course><roll>163.59</roll><pitch>11.17</pitch><mode /></trkpt><trkpt lat="39.9197014" lon="-105.1128067"><ele>1687.77</ele><time>2018-06-05T17:01:43-06:00</time><course>194.88</course><roll>163.72</roll><pitch>10.89</pitch><mode /></trkpt><trkpt lat="39.9196993" lon="-105.11281"><ele>1687.61</ele><time>2018-06-05T17:01:44-06:00</time><course>195.12</course><roll>163.84</roll><pitch>10.62</pitch><mode /></trkpt><trkpt lat="39.9197001" lon="-105.1128082"><ele>1687.42</ele><time>2018-06-05T17:01:44-06:00</time><course>195.38</course><roll>163.97</roll><pitch>10.36</pitch><mode /></trkpt><trkpt lat="39.9196992" lon="-105.1128096"><ele>1687.32</ele><time>2018-06-05T17:01:44-06:00</time><course>195.64</course><roll>164.09</roll><pitch>10.11</pitch><mode /></trkpt><trkpt lat="39.9196988" lon="-105.1128102"><ele>1687.18</ele><time>2018-06-05T17:01:44-06:00</time><course>195.91</course><roll>164.21</roll><pitch>9.86</pitch><mode /></trkpt></trkseg></trk><wpt lat="39.9197446" lon="-105.112762"><name>0</name></wpt><wpt lat="39.9197445" lon="-105.1127631"><name>1</name></wpt><wpt lat="39.9197442" lon="-105.112763"><name>2</name></wpt><wpt lat="39.9197421" lon="-105.1127639"><name>3</name></wpt><wpt lat="39.9197415" lon="-105.1127644"><name>4</name></wpt><wpt lat="39.9197402" lon="-105.112766"><name>5</name></wpt><wpt lat="39.9197394" lon="-105.1127675"><name>6</name></wpt><wpt lat="39.9197395" lon="-105.1127685"><name>7</name></wpt><wpt lat="39.9197365" lon="-105.1127733"><name>8</name></wpt><wpt lat="39.9197323" lon="-105.1127769"><name>9</name></wpt><wpt lat="39.919728" lon="-105.1127801"><name>10</name></wpt><wpt lat="39.9197259" lon="-105.1127809"><name>11</name></wpt><wpt lat="39.9197237" lon="-105.1127806"><name>12</name></wpt><wpt lat="39.9197193" lon="-105.1127835"><name>13</name></wpt><wpt lat="39.9197173" lon="-105.1127848"><name>14</name></wpt><wpt lat="39.9197153" lon="-105.1127859"><name>15</name></wpt><wpt lat="39.9197148" lon="-105.1127864"><name>16</name></wpt><wpt lat="39.9197139" lon="-105.1127872"><name>17</name></wpt><wpt lat="39.9197129" lon="-105.1127883"><name>18</name></wpt><wpt lat="39.9197117" lon="-105.11279"><name>19</name></wpt><wpt lat="39.9197103" lon="-105.1127924"><name>20</name></wpt><wpt lat="39.9197081" lon="-105.1127944"><name>21</name></wpt><wpt lat="39.9197072" lon="-105.1127973"><name>22</name></wpt><wpt lat="39.9197059" lon="-105.1128008"><name>23</name></wpt><wpt lat="39.9197048" lon="-105.1128037"><name>24</name></wpt><wpt lat="39.9197036" lon="-105.1128067"><name>25</name></wpt><wpt lat="39.9197073" lon="-105.1128093"><name>26</name></wpt><wpt lat="39.9197114" lon="-105.1128128"><name>27</name></wpt><wpt lat="39.9197127" lon="-105.1128165"><name>28</name></wpt><wpt lat="39.9197132" lon="-105.1128204"><name>29</name></wpt><wpt lat="39.9197129" lon="-105.1128242"><name>30</name></wpt><wpt lat="39.9197118" lon="-105.1128278"><name>31</name></wpt><wpt lat="39.919712" lon="-105.1128311"><name>32</name></wpt><wpt lat="39.9197106" lon="-105.1128344"><name>33</name></wpt><wpt lat="39.9197104" lon="-105.1128374"><name>34</name></wpt><wpt lat="39.9197092" lon="-105.1128412"><name>35</name></wpt><wpt lat="39.9197091" lon="-105.1128437"><name>36</name></wpt><wpt lat="39.9197081" lon="-105.1128468"><name>37</name></wpt><wpt lat="39.9197066" lon="-105.1128511"><name>38</name></wpt><wpt lat="39.9197057" lon="-105.1128535"><name>39</name></wpt><wpt lat="39.9197049" lon="-105.1128564"><name>40</name></wpt><wpt lat="39.919707" lon="-105.1128538"><name>41</name></wpt><wpt lat="39.9197068" lon="-105.1128533"><name>42</name></wpt><wpt lat="39.9197048" lon="-105.112859"><name>43</name></wpt><wpt lat="39.919705" lon="-105.1128596"><name>44</name></wpt><wpt lat="39.9197042" lon="-105.1128575"><name>45</name></wpt><wpt lat="39.9197051" lon="-105.1128542"><name>46</name></wpt><wpt lat="39.9196966" lon="-105.1128544"><name>47</name></wpt><wpt lat="39.9196931" lon="-105.1128559"><name>48</name></wpt><wpt lat="39.9196904" lon="-105.1128573"><name>49</name></wpt><wpt lat="39.9196875" lon="-105.1128581"><name>50</name></wpt><wpt lat="39.9196855" lon="-105.1128582"><name>51</name></wpt><wpt lat="39.9196843" lon="-105.1128599"><name>52</name></wpt><wpt lat="39.9196838" lon="-105.1128606"><name>53</name></wpt><wpt lat="39.9196817" lon="-105.1128629"><name>54</name></wpt><wpt lat="39.9196805" lon="-105.1128639"><name>55</name></wpt><wpt lat="39.9196795" lon="-105.1128647"><name>56</name></wpt><wpt lat="39.9196779" lon="-105.1128665"><name>57</name></wpt><wpt lat="39.9196757" lon="-105.1128682"><name>58</name></wpt><wpt lat="39.9196747" lon="-105.1128697"><name>59</name></wpt><wpt lat="39.9196739" lon="-105.1128706"><name>60</name></wpt><wpt lat="39.9196726" lon="-105.1128721"><name>61</name></wpt><wpt lat="39.9196716" lon="-105.1128726"><name>62</name></wpt><wpt lat="39.9196711" lon="-105.1128714"><name>63</name></wpt><wpt lat="39.9196662" lon="-105.1128756"><name>64</name></wpt><wpt lat="39.9196618" lon="-105.1128788"><name>65</name></wpt><wpt lat="39.9196579" lon="-105.1128806"><name>66</name></wpt><wpt lat="39.9196566" lon="-105.1128783"><name>67</name></wpt><wpt lat="39.919659" lon="-105.1128691"><name>68</name></wpt><wpt lat="39.9196567" lon="-105.11287"><name>69</name></wpt><wpt lat="39.9196537" lon="-105.1128714"><name>70</name></wpt><wpt lat="39.9196533" lon="-105.1128694"><name>71</name></wpt><wpt lat="39.9196546" lon="-105.1128636"><name>72</name></wpt><wpt lat="39.9196534" lon="-105.1128634"><name>73</name></wpt><wpt lat="39.9196508" lon="-105.1128653"><name>74</name></wpt><wpt lat="39.9196494" lon="-105.1128657"><name>75</name></wpt><wpt lat="39.9196503" lon="-105.1128621"><name>76</name></wpt><wpt lat="39.9196494" lon="-105.1128613"><name>77</name></wpt><wpt lat="39.9196514" lon="-105.1128576"><name>78</name></wpt><wpt lat="39.919651" lon="-105.1128578"><name>79</name></wpt><wpt lat="39.9196514" lon="-105.1128559"><name>80</name></wpt><wpt lat="39.9196521" lon="-105.1128526"><name>81</name></wpt><wpt lat="39.9196527" lon="-105.1128502"><name>82</name></wpt><wpt lat="39.919656" lon="-105.1128443"><name>83</name></wpt><wpt lat="39.9196562" lon="-105.1128403"><name>84</name></wpt><wpt lat="39.9196529" lon="-105.1128065"><name>85</name></wpt><wpt lat="39.9196526" lon="-105.1128063"><name>86</name></wpt><wpt lat="39.919652" lon="-105.1128069"><name>87</name></wpt><wpt lat="39.9196511" lon="-105.1128081"><name>88</name></wpt><wpt lat="39.9196506" lon="-105.112808"><name>89</name></wpt><wpt lat="39.91965" lon="-105.1128069"><name>90</name></wpt><wpt lat="39.9196498" lon="-105.1128075"><name>91</name></wpt><wpt lat="39.9196494" lon="-105.1128087"><name>92</name></wpt><wpt lat="39.9196485" lon="-105.1128106"><name>93</name></wpt><wpt lat="39.9196484" lon="-105.1128108"><name>94</name></wpt><wpt lat="39.9196476" lon="-105.1128109"><name>95</name></wpt><wpt lat="39.919647" lon="-105.1128095"><name>96</name></wpt><wpt lat="39.9196473" lon="-105.1128098"><name>97</name></wpt><wpt lat="39.9196443" lon="-105.1128095"><name>98</name></wpt><wpt lat="39.9196422" lon="-105.1128127"><name>99</name></wpt><wpt lat="39.9196414" lon="-105.1128161"><name>100</name></wpt><wpt lat="39.9196415" lon="-105.1128182"><name>101</name></wpt><wpt lat="39.919645" lon="-105.1128189"><name>102</name></wpt><wpt lat="39.919649" lon="-105.1128209"><name>103</name></wpt><wpt lat="39.9196488" lon="-105.1128227"><name>104</name></wpt><wpt lat="39.9196457" lon="-105.1128266"><name>105</name></wpt><wpt lat="39.9196384" lon="-105.1128344"><name>106</name></wpt><wpt lat="39.9196308" lon="-105.1128429"><name>107</name></wpt><wpt lat="39.9196238" lon="-105.1128508"><name>108</name></wpt><wpt lat="39.9196173" lon="-105.1128587"><name>109</name></wpt><wpt lat="39.9196115" lon="-105.1128667"><name>110</name></wpt><wpt lat="39.9196062" lon="-105.1128741"><name>111</name></wpt><wpt lat="39.9196014" lon="-105.1128819"><name>112</name></wpt><wpt lat="39.9195967" lon="-105.1128889"><name>113</name></wpt><wpt lat="39.9195919" lon="-105.1128955"><name>114</name></wpt><wpt lat="39.9195874" lon="-105.1129015"><name>115</name></wpt><wpt lat="39.9195833" lon="-105.1129075"><name>116</name></wpt><wpt lat="39.9195794" lon="-105.1129134"><name>117</name></wpt><wpt lat="39.9195753" lon="-105.1129199"><name>118</name></wpt><wpt lat="39.9195713" lon="-105.1129264"><name>119</name></wpt><wpt lat="39.919567" lon="-105.1129329"><name>120</name></wpt><wpt lat="39.9195622" lon="-105.1129396"><name>121</name></wpt><wpt lat="39.9195576" lon="-105.1129468"><name>122</name></wpt><wpt lat="39.919553" lon="-105.1129539"><name>123</name></wpt><wpt lat="39.9195477" lon="-105.1129616"><name>124</name></wpt><wpt lat="39.9195422" lon="-105.1129694"><name>125</name></wpt><wpt lat="39.919537" lon="-105.1129767"><name>126</name></wpt><wpt lat="39.919531" lon="-105.1129845"><name>127</name></wpt><wpt lat="39.9195252" lon="-105.1129923"><name>128</name></wpt><wpt lat="39.9195194" lon="-105.1129996"><name>129</name></wpt><wpt lat="39.9195169" lon="-105.113001"><name>130</name></wpt><wpt lat="39.9195158" lon="-105.1130014"><name>131</name></wpt><wpt lat="39.9195159" lon="-105.1130004"><name>132</name></wpt><wpt lat="39.919516" lon="-105.1129975"><name>133</name></wpt><wpt lat="39.9195181" lon="-105.1129919"><name>134</name></wpt><wpt lat="39.9195214" lon="-105.1129842"><name>135</name></wpt><wpt lat="39.9195254" lon="-105.1129763"><name>136</name></wpt><wpt lat="39.9195306" lon="-105.1129681"><name>137</name></wpt><wpt lat="39.9195338" lon="-105.1129621"><name>138</name></wpt><wpt lat="39.9195384" lon="-105.1129545"><name>139</name></wpt><wpt lat="39.9195424" lon="-105.1129483"><name>140</name></wpt><wpt lat="39.919546" lon="-105.1129415"><name>141</name></wpt><wpt lat="39.9195483" lon="-105.112937"><name>142</name></wpt><wpt lat="39.9195505" lon="-105.1129332"><name>143</name></wpt><wpt lat="39.9195527" lon="-105.1129292"><name>144</name></wpt><wpt lat="39.9195551" lon="-105.1129254"><name>145</name></wpt><wpt lat="39.9195585" lon="-105.1129204"><name>146</name></wpt><wpt lat="39.9195616" lon="-105.1129158"><name>147</name></wpt><wpt lat="39.9195665" lon="-105.1129089"><name>148</name></wpt><wpt lat="39.9195697" lon="-105.1129036"><name>149</name></wpt><wpt lat="39.9195726" lon="-105.1128986"><name>150</name></wpt><wpt lat="39.9195725" lon="-105.1128966"><name>151</name></wpt><wpt lat="39.9195722" lon="-105.1128952"><name>152</name></wpt><wpt lat="39.919574" lon="-105.1128902"><name>153</name></wpt><wpt lat="39.9195769" lon="-105.1128839"><name>154</name></wpt><wpt lat="39.9195808" lon="-105.1128766"><name>155</name></wpt><wpt lat="39.9195834" lon="-105.1128718"><name>156</name></wpt><wpt lat="39.9195844" lon="-105.1128702"><name>157</name></wpt><wpt lat="39.9195853" lon="-105.1128688"><name>158</name></wpt><wpt lat="39.9195867" lon="-105.1128672"><name>159</name></wpt><wpt lat="39.9195877" lon="-105.112866"><name>160</name></wpt><wpt lat="39.9195886" lon="-105.1128651"><name>161</name></wpt><wpt lat="39.9195889" lon="-105.1128648"><name>162</name></wpt><wpt lat="39.9195888" lon="-105.1128643"><name>163</name></wpt><wpt lat="39.9195884" lon="-105.1128645"><name>164</name></wpt><wpt lat="39.9195878" lon="-105.112866"><name>165</name></wpt><wpt lat="39.9195883" lon="-105.1128659"><name>166</name></wpt><wpt lat="39.9195882" lon="-105.1128699"><name>167</name></wpt><wpt lat="39.9195874" lon="-105.1128741"><name>168</name></wpt><wpt lat="39.9195869" lon="-105.112873"><name>169</name></wpt><wpt lat="39.9195872" lon="-105.1128649"><name>170</name></wpt><wpt lat="39.9195847" lon="-105.1128658"><name>171</name></wpt><wpt lat="39.9195843" lon="-105.1128605"><name>172</name></wpt><wpt lat="39.9195832" lon="-105.1128599"><name>173</name></wpt><wpt lat="39.9195987" lon="-105.1128783"><name>174</name></wpt><wpt lat="39.9196009" lon="-105.1128746"><name>175</name></wpt><wpt lat="39.9196019" lon="-105.1128738"><name>176</name></wpt><wpt lat="39.9196028" lon="-105.1128727"><name>177</name></wpt><wpt lat="39.919604" lon="-105.1128723"><name>178</name></wpt><wpt lat="39.9196041" lon="-105.1128716"><name>179</name></wpt><wpt lat="39.9196057" lon="-105.1128691"><name>180</name></wpt><wpt lat="39.9196069" lon="-105.1128662"><name>181</name></wpt><wpt lat="39.9196089" lon="-105.1128639"><name>182</name></wpt><wpt lat="39.9196093" lon="-105.112866"><name>183</name></wpt><wpt lat="39.9196137" lon="-105.1128649"><name>184</name></wpt><wpt lat="39.9196151" lon="-105.1128639"><name>185</name></wpt><wpt lat="39.9196191" lon="-105.1128626"><name>186</name></wpt><wpt lat="39.9196249" lon="-105.1128608"><name>187</name></wpt><wpt lat="39.9196302" lon="-105.1128588"><name>188</name></wpt><wpt lat="39.9196324" lon="-105.1128571"><name>189</name></wpt><wpt lat="39.9196311" lon="-105.1128606"><name>190</name></wpt><wpt lat="39.9196308" lon="-105.1128621"><name>191</name></wpt><wpt lat="39.9196314" lon="-105.1128594"><name>192</name></wpt><wpt lat="39.9196284" lon="-105.1128598"><name>193</name></wpt><wpt lat="39.9196256" lon="-105.1128608"><name>194</name></wpt><wpt lat="39.9196204" lon="-105.1128587"><name>195</name></wpt><wpt lat="39.9196166" lon="-105.1128592"><name>196</name></wpt><wpt lat="39.9196128" lon="-105.1128607"><name>197</name></wpt><wpt lat="39.9197149" lon="-105.1128456"><name>198</name></wpt><wpt lat="39.9196624" lon="-105.1128972"><name>199</name></wpt><wpt lat="39.9196328" lon="-105.1129214"><name>200</name></wpt><wpt lat="39.919613" lon="-105.1129379"><name>201</name></wpt><wpt lat="39.9195988" lon="-105.1130056"><name>202</name></wpt><wpt lat="39.9195783" lon="-105.1130264"><name>203</name></wpt><wpt lat="39.9195607" lon="-105.1130393"><name>204</name></wpt><wpt lat="39.9195232" lon="-105.1130426"><name>205</name></wpt><wpt lat="39.9194993" lon="-105.1130688"><name>206</name></wpt><wpt lat="39.9195011" lon="-105.113099"><name>207</name></wpt><wpt lat="39.9195188" lon="-105.1131091"><name>208</name></wpt><wpt lat="39.9195348" lon="-105.1130975"><name>209</name></wpt><wpt lat="39.9195443" lon="-105.1130871"><name>210</name></wpt><wpt lat="39.9195492" lon="-105.1130834"><name>211</name></wpt><wpt lat="39.91955" lon="-105.1130757"><name>212</name></wpt><wpt lat="39.9195422" lon="-105.113076"><name>213</name></wpt><wpt lat="39.9195405" lon="-105.1130816"><name>214</name></wpt><wpt lat="39.9195449" lon="-105.1130856"><name>215</name></wpt><wpt lat="39.9195484" lon="-105.1130883"><name>216</name></wpt><wpt lat="39.9195557" lon="-105.1130912"><name>217</name></wpt><wpt lat="39.919561" lon="-105.1130927"><name>218</name></wpt><wpt lat="39.9195614" lon="-105.1130933"><name>219</name></wpt><wpt lat="39.9195607" lon="-105.113094"><name>220</name></wpt><wpt lat="39.9195611" lon="-105.1130933"><name>221</name></wpt><wpt lat="39.9195634" lon="-105.1130891"><name>222</name></wpt><wpt lat="39.9195637" lon="-105.1130878"><name>223</name></wpt><wpt lat="39.9195658" lon="-105.1130872"><name>224</name></wpt><wpt lat="39.9195676" lon="-105.1130896"><name>225</name></wpt><wpt lat="39.919574" lon="-105.1130884"><name>226</name></wpt><wpt lat="39.9195846" lon="-105.1130836"><name>227</name></wpt><wpt lat="39.9195964" lon="-105.1130749"><name>228</name></wpt><wpt lat="39.919609" lon="-105.1130662"><name>229</name></wpt><wpt lat="39.9196102" lon="-105.1129013"><name>230</name></wpt><wpt lat="39.9196118" lon="-105.112899"><name>231</name></wpt><wpt lat="39.9196131" lon="-105.112897"><name>232</name></wpt><wpt lat="39.9196146" lon="-105.1128942"><name>233</name></wpt><wpt lat="39.919616" lon="-105.1128928"><name>234</name></wpt><wpt lat="39.9196175" lon="-105.1128911"><name>235</name></wpt><wpt lat="39.919619" lon="-105.11289"><name>236</name></wpt><wpt lat="39.9196196" lon="-105.1128894"><name>237</name></wpt><wpt lat="39.91962" lon="-105.1128892"><name>238</name></wpt><wpt lat="39.9196211" lon="-105.112888"><name>239</name></wpt><wpt lat="39.9196227" lon="-105.1128874"><name>240</name></wpt><wpt lat="39.9196245" lon="-105.1128837"><name>241</name></wpt><wpt lat="39.919624" lon="-105.1128833"><name>242</name></wpt><wpt lat="39.9196219" lon="-105.1128845"><name>243</name></wpt><wpt lat="39.9196217" lon="-105.1128819"><name>244</name></wpt><wpt lat="39.9196216" lon="-105.1128817"><name>245</name></wpt><wpt lat="39.9196213" lon="-105.1128811"><name>246</name></wpt><wpt lat="39.9196214" lon="-105.1128805"><name>247</name></wpt><wpt lat="39.9196212" lon="-105.1128798"><name>248</name></wpt><wpt lat="39.919621" lon="-105.1128801"><name>249</name></wpt><wpt lat="39.9196207" lon="-105.1128803"><name>250</name></wpt><wpt lat="39.9196206" lon="-105.11288"><name>251</name></wpt><wpt lat="39.9196204" lon="-105.1128798"><name>252</name></wpt><wpt lat="39.9196206" lon="-105.1128796"><name>253</name></wpt><wpt lat="39.91962" lon="-105.11288"><name>254</name></wpt><wpt lat="39.9196195" lon="-105.1128808"><name>255</name></wpt><wpt lat="39.9196189" lon="-105.1128817"><name>256</name></wpt><wpt lat="39.9196191" lon="-105.112881"><name>257</name></wpt><wpt lat="39.919619" lon="-105.1128801"><name>258</name></wpt><wpt lat="39.9196195" lon="-105.112879"><name>259</name></wpt><wpt lat="39.9196192" lon="-105.1128789"><name>260</name></wpt><wpt lat="39.9196186" lon="-105.1128794"><name>261</name></wpt><wpt lat="39.9196185" lon="-105.1128796"><name>262</name></wpt><wpt lat="39.9196179" lon="-105.1128795"><name>263</name></wpt><wpt lat="39.9196174" lon="-105.1128793"><name>264</name></wpt><wpt lat="39.9196168" lon="-105.1128782"><name>265</name></wpt><wpt lat="39.9196167" lon="-105.1128779"><name>266</name></wpt><wpt lat="39.9196166" lon="-105.1128775"><name>267</name></wpt><wpt lat="39.9196167" lon="-105.1128773"><name>268</name></wpt><wpt lat="39.9196169" lon="-105.1128768"><name>269</name></wpt><wpt lat="39.9196149" lon="-105.1128776"><name>270</name></wpt><wpt lat="39.9196118" lon="-105.1128802"><name>271</name></wpt><wpt lat="39.9196105" lon="-105.1128819"><name>272</name></wpt><wpt lat="39.9196133" lon="-105.1128782"><name>273</name></wpt><wpt lat="39.9196144" lon="-105.1128768"><name>274</name></wpt><wpt lat="39.9196152" lon="-105.1128746"><name>275</name></wpt><wpt lat="39.9196166" lon="-105.1128714"><name>276</name></wpt><wpt lat="39.9196191" lon="-105.1128707"><name>277</name></wpt><wpt lat="39.9196189" lon="-105.1128726"><name>278</name></wpt><wpt lat="39.9196197" lon="-105.1128725"><name>279</name></wpt><wpt lat="39.9196191" lon="-105.1128743"><name>280</name></wpt><wpt lat="39.9196183" lon="-105.1128762"><name>281</name></wpt><wpt lat="39.9196179" lon="-105.1128763"><name>282</name></wpt><wpt lat="39.9196177" lon="-105.1128766"><name>283</name></wpt><wpt lat="39.9196174" lon="-105.1128783"><name>284</name></wpt><wpt lat="39.9196161" lon="-105.1128812"><name>285</name></wpt><wpt lat="39.919612" lon="-105.1128867"><name>286</name></wpt><wpt lat="39.9196112" lon="-105.1128885"><name>287</name></wpt><wpt lat="39.9196117" lon="-105.1128896"><name>288</name></wpt><wpt lat="39.9196121" lon="-105.1128909"><name>289</name></wpt><wpt lat="39.9196129" lon="-105.1128906"><name>290</name></wpt><wpt lat="39.9196119" lon="-105.1128932"><name>291</name></wpt><wpt lat="39.9196109" lon="-105.1128943"><name>292</name></wpt><wpt lat="39.9196099" lon="-105.112897"><name>293</name></wpt><wpt lat="39.9196091" lon="-105.1128982"><name>294</name></wpt><wpt lat="39.919609" lon="-105.112898"><name>295</name></wpt><wpt lat="39.9196091" lon="-105.1128978"><name>296</name></wpt><wpt lat="39.9196087" lon="-105.112898"><name>297</name></wpt><wpt lat="39.919608" lon="-105.1129006"><name>298</name></wpt><wpt lat="39.9196063" lon="-105.1129026"><name>299</name></wpt><wpt lat="39.9196043" lon="-105.1129055"><name>300</name></wpt><wpt lat="39.9196" lon="-105.1129145"><name>301</name></wpt><wpt lat="39.9195993" lon="-105.1129184"><name>302</name></wpt><wpt lat="39.9195995" lon="-105.1129208"><name>303</name></wpt><wpt lat="39.9195989" lon="-105.1129223"><name>304</name></wpt><wpt lat="39.9195975" lon="-105.1129258"><name>305</name></wpt><wpt lat="39.9195976" lon="-105.1129274"><name>306</name></wpt><wpt lat="39.9195953" lon="-105.1129305"><name>307</name></wpt><wpt lat="39.9195922" lon="-105.1129322"><name>308</name></wpt><wpt lat="39.9195911" lon="-105.1129309"><name>309</name></wpt><wpt lat="39.9195901" lon="-105.1129323"><name>310</name></wpt><wpt lat="39.919587" lon="-105.1129346"><name>311</name></wpt><wpt lat="39.9195882" lon="-105.1129302"><name>312</name></wpt><wpt lat="39.9195888" lon="-105.1129285"><name>313</name></wpt><wpt lat="39.919592" lon="-105.1129225"><name>314</name></wpt><wpt lat="39.9195924" lon="-105.112918"><name>315</name></wpt><wpt lat="39.9196528" lon="-105.1128666"><name>316</name></wpt><wpt lat="39.9196526" lon="-105.1128662"><name>317</name></wpt><wpt lat="39.9196523" lon="-105.1128655"><name>318</name></wpt><wpt lat="39.9196515" lon="-105.1128657"><name>319</name></wpt><wpt lat="39.9196517" lon="-105.1128641"><name>320</name></wpt><wpt lat="39.9196512" lon="-105.1128637"><name>321</name></wpt><wpt lat="39.9196509" lon="-105.1128629"><name>322</name></wpt><wpt lat="39.9196511" lon="-105.1128611"><name>323</name></wpt><wpt lat="39.9196505" lon="-105.112861"><name>324</name></wpt><wpt lat="39.9196498" lon="-105.1128618"><name>325</name></wpt><wpt lat="39.9196483" lon="-105.1128613"><name>326</name></wpt><wpt lat="39.9196459" lon="-105.1128603"><name>327</name></wpt><wpt lat="39.9196455" lon="-105.1128584"><name>328</name></wpt><wpt lat="39.9196471" lon="-105.1128543"><name>329</name></wpt><wpt lat="39.9196481" lon="-105.1128481"><name>330</name></wpt><wpt lat="39.9196495" lon="-105.1128436"><name>331</name></wpt><wpt lat="39.9196529" lon="-105.1128349"><name>332</name></wpt><wpt lat="39.9196574" lon="-105.1128267"><name>333</name></wpt><wpt lat="39.9196648" lon="-105.1128186"><name>334</name></wpt><wpt lat="39.9196693" lon="-105.1128141"><name>335</name></wpt><wpt lat="39.919673" lon="-105.1128165"><name>336</name></wpt><wpt lat="39.9196781" lon="-105.1128193"><name>337</name></wpt><wpt lat="39.9196847" lon="-105.1128228"><name>338</name></wpt><wpt lat="39.9196926" lon="-105.1128223"><name>339</name></wpt><wpt lat="39.9197" lon="-105.1128207"><name>340</name></wpt><wpt lat="39.9197065" lon="-105.1128194"><name>341</name></wpt><wpt lat="39.9197041" lon="-105.112813"><name>342</name></wpt><wpt lat="39.9197029" lon="-105.1128113"><name>343</name></wpt><wpt lat="39.9197032" lon="-105.1128082"><name>344</name></wpt><wpt lat="39.9197034" lon="-105.1128061"><name>345</name></wpt><wpt lat="39.9197017" lon="-105.1128077"><name>346</name></wpt><wpt lat="39.919702" lon="-105.1128063"><name>347</name></wpt><wpt lat="39.9197001" lon="-105.1128091"><name>348</name></wpt><wpt lat="39.9197014" lon="-105.1128067"><name>349</name></wpt><wpt lat="39.9196993" lon="-105.11281"><name>350</name></wpt><wpt lat="39.9197001" lon="-105.1128082"><name>351</name></wpt><wpt lat="39.9196992" lon="-105.1128096"><name>352</name></wpt><wpt lat="39.9196988" lon="-105.1128102"><name>353</name></wpt></gpx>